id,name_eng,country,lon,lat,name_ua,name_ru
713514,Alupka,UA,34.049999,44.416668,Алупка,Алупка
703883,Avtonomna Respublika Krym,UA,34,45,Автономна Республіка Крим,Автономная Республика Крым
713772,Aeroflots’kyy,UA,34.033333,45.016666,Аерофлотський,Аэрофлотский
713163,Artsyz,UA,29.41824,45.99194,Арциз,Арциз
713101,Avtozavodskiy Rayon,UA,33.416672,49.066669,Автозаводський район,Автозаводской район
713150,Asport,UA,34.25,44.716667,Аспорт,Аспорт
713746,Akikat,UA,35.066666,44.916668,Акікат,Акикат
687388,Arpat,UA,34.716667,44.866669,Арпат,Арпат
713520,Alsu,UA,33.716667,44.516666,Алсу,Алсу
713191,Artek,UA,34.302878,44.556159,Артек,Артек
713513,Alushta,UA,34.410124,44.676649,Алушта,Алушта
697958,Adzhymushkay,UA,36.523609,45.387222,Аджи-Мушкай,Аджи-Мушкай
713204,Armutluk,UA,35.166668,44.983334,Армутлук,Армутлук
713076,Ayvazovskaya,UA,35.383331,45.049999,Айвазовська,Айвазовская
710413,Ataman’,UA,34.5,46.016666,Атамань,Атамань
713135,Atestovo,UA,30.549999,46.633331,Алтестове,Алтестово
713760,Ageyevka,UA,30.299999,47.916668,Агеївка,Агеевка
713698,Aleksandro-Grigor’yevka,UA,37.75,48.049999,Олександро-Григорівка,Александро-Григорьевка
713142,Ataki,UA,26.483334,48.533333,Атаки,Атаки
713178,Artemovka,UA,36.041672,49.840561,Артемівка,Артемовка
706811,Arbuzivka,UA,34.332851,45.627071,Арбузівка,Арбузовка
713505,Amurs’ke,UA,34.14159,45.290138,Амурське,Амурское
713724,Alabash Konrat,UA,34.133331,45.26667,Алабаш-Конрат,Алабаш-Конрат
7040021,Aromatne,UA,33.868141,44.801441,Ароматне,Ароматное
7021138,Aromat,UA,33.940498,44.577511,Аромат,Аромат
713099,Ayans’ke Dzherelo,UA,34.28706,44.827229,Аянське джерело,Аянский источник
713154,Askaniya Nova,UA,33.868889,46.451351,Асканія-Нова,Аскания-Нова
713716,Alchevsk,UA,38.816689,48.468929,Алчевськ,Алчевск
713171,Artëmovskiy Rayon,UA,39.333328,48.566669,Артемівський район,Артемовский район
713175,Artëmovsk,UA,38.731998,48.440609,Кипуче,Кипучее
713126,Auly,UA,34.49493,48.527081,Аули,Аулы
713122,Avdeyevka,UA,37.74255,48.139889,Авдіївка,Авдеевка
713245,Apostolove,UA,33.713692,47.66003,Апостолове,Апостолово
713259,Antratsit,UA,39.091282,48.115028,Антрацит,Антрацит
713203,Armyansk,UA,33.692059,46.109192,Армянськ,Армянск
713544,Alekseyevo-Druzhkovka,UA,37.609409,48.57909,Олексієво-Дружківка,Алексеево-Дружковка
713174,Bakhmut,UA,37.99987,48.595589,Бахмут,Бахмут
713504,Amvrosiyivka,UA,38.47768,47.79348,Амвросіївка,Амвросиевка
713500,Anan’yiv,UA,29.966351,47.720081,Ананьїв,Ананьев
713634,Aleksandrovka,UA,33.301449,48.724491,Олександрівка,Александровка
713709,Aleksandrinka,UA,37.681931,47.77874,Олександрінка,Александринка
713222,Arbuzynka,UA,31.31963,47.909721,Арбузинка,Арбузинка
713316,Antoniny,UA,26.87714,49.809738,Антоніни,Антонины
713389,Andrushivka,UA,29.020229,50.022881,Андрушівка,Андрушёвка
713676,Aleksandrovka,UA,32.761162,46.838261,Олександрівка,Александровка
713784,Adzhamka,UA,32.535419,48.542439,Аджамка,Аджамка
711349,Bucha,UA,30.366671,50.583328,Буча,Буча
711987,Bobyanskoye,UA,34.366669,44.650002,Боб'янське,Бобянское
712443,Berdyanskoye,UA,37.44722,47.100559,Бердянське,Бердянское
711623,Borova,UA,37.621361,49.377701,Борова,Боровая
712160,Bilhorod-Dnistrovskyy,UA,30.35,46.200001,Білгород-Дністровський,Белгород-Днестровский
712374,Berezhani,UA,24.933332,49.450001,Бережани,Бережаны
712861,Bar,UA,27.68256,49.077171,Бар,Бар
711487,Brailiv,UA,28.174589,49.109859,Браїлів,Браилов
712969,Bakhchysaray,UA,33.866669,44.75,Бахчисарай,Бахчисарай
712773,Bashtanivka,UA,33.900002,44.683334,Баштанівка,Баштановка
711660,Boryspil,UA,30.950001,50.349998,Бориспіль,Борисполь
711562,Bortnichi,UA,30.683332,50.366669,Бортничі,Бортничи
701300,Baksan,UA,34.416668,44.966667,Баксан,Баксан
711999,Bobrovytsya,UA,31.383333,50.75,Бобровиця,Бобровица
711055,Buzovaya,UA,30.033333,50.416668,Бузова,Бузовая
712590,Belogorodka,UA,30.216667,50.383331,Білогородка,Белогородка
712631,Belichi,UA,30.35,50.466667,Біличі,Беличи
711390,Brovary,UA,30.766666,50.5,Бровари,Бровары
711919,Bogdanovka,UA,30.916668,50.633331,Богданівка,Богдановка
712930,Balaklava,UA,33.599998,44.5,Балаклава,Балаклава
712223,Beshuyskiye Kopi,UA,34.183334,44.650002,Бешуйські копалини,Бешуйские копи
712796,Bartenivka,UA,33.549999,44.633331,Бартенівка,Бартеневка
712228,Besh Terek,UA,34.233334,45.016666,Беш-Терек,Беш-Терек
712654,Bila Skelya,UA,34.616669,45.099998,Біла Скеля,Белая Скала
712105,Biyuk-Nayman,UA,34.349998,46.016666,Біюк-Найман,Биюк-Найман
712587,Bilohirsk,UA,34.599998,45.049999,Білогірськ,Белогорск
712050,Blyzhnye,UA,35.333332,45.049999,Ближнє,Ближнее
712048,Blizhniye Kamyshi,UA,35.400002,45.083332,Ближні Комиші,Ближние Камыши
712427,Berehove,UA,35.433334,45.099998,Берегове,Береговое
712755,Batal’ne,UA,35.616669,45.200001,Батальне,Батальное
712236,Besharan’,UA,34.766666,45.450001,Сім'яне,Семенное
711820,Bol’shaya Balka,UA,30.6,46.566666,Велика Балка,Великая Балка
712451,Berdyansk,UA,36.794445,46.750278,Бердянськ,Бердянск
712934,Balabine,UA,35.206112,47.734444,Балабине,Балабино
712142,Birjukowo,UA,39.733334,47.950001,Бірюкове,Бирюково
711756,Bol’shiye Troyany,UA,30.216667,48.400002,Великі Трояни,Большие Трояны
712615,Belitskiy,UA,35.299999,47.583328,Приморське,Приморское
711165,Burchak,UA,35.299999,47.383331,Бурчак,Бурчак
712053,Blyzhn’ohorods’ke,UA,34.377159,45.640099,Ближньогородське,Ближнегородское
7019513,Blyzhnye,UA,34.298809,45.521919,Ближнє,Ближнее
711681,Borangar,UA,34.200001,45.400002,Красний Партизан,Красный Партизан
712987,Baglikovo,UA,34.183331,45.366669,Баглікове,Багликово
712005,Bobritsa,UA,30.18858,50.349979,Бобриця,Бобрица
712548,Belostadnoye,UA,35.062222,45.530682,Білостадне,Белостадное
711621,Borova,UA,30.10429,50.17625,Борова,Боровая
712423,Berehove,UA,22.64418,48.205551,Берегове,Берегово
711134,Burshtyn,UA,24.62776,49.258659,Бурштин,Бурштын
711515,Boyarka,UA,30.297279,50.319099,Боярка,Боярка
712808,Barmashovo,UA,32.449139,47.09037,Білозірка,Белозёрка
713019,Babintsy,UA,24.616671,49.416672,Бабинці,Бабинцы
711359,Bryukhovychi,UA,23.9597,49.904671,Брюховичі,Брюховичи
712926,Balakliya,UA,36.859509,49.4627,Балаклія,Балаклея
711382,Brusyliv,UA,29.52626,50.284489,Брусилів,Брусилов
713017,Babintsy,UA,30.023911,50.633141,Бабинці,Бабинцы
712775,Bashtanka,UA,32.438679,47.407188,Баштанка,Баштанка
711669,Boryslav,UA,23.432381,49.28672,Борислав,Борислав
712471,Belz,UA,24.00642,50.382259,Белз,Белз
712441,Berdychiv,UA,28.60235,49.899281,Бердичів,Бердичев
810965,Butovka,UA,36.38203,49.708038,Бутівка,Бутовка
712787,Baryshivka,UA,31.32173,50.360981,Баришівка,Барышевка
712886,Balta,UA,29.61982,47.935478,Балта,Балта
711416,Brody,UA,25.15027,50.08791,Броди,Броды
711369,Bryanka,UA,38.672218,48.511002,Брянка,Брянка
711894,Bohodukhiv,UA,35.527649,50.164661,Богодухів,Богодухов
711867,Bohuslav,UA,30.874399,49.549389,Богуслав,Богуслав
712389,Berezan’,UA,31.467119,50.311199,Березань,Березань
712575,Belokamenskoye,UA,38.099998,48.683331,Білокам'янське,Белокаменское
711841,Bolhrad,UA,28.61487,45.682621,Болград,Болград
712521,Bilovodsk,UA,39.589748,49.208462,Біловодськ,Беловодск
711887,Bohorodchany,UA,24.53834,48.806999,Богородчани,Богородчаны
712250,Bershad’,UA,29.51726,48.367821,Бершадь,Бершадь
712508,Bilozerka,UA,32.442509,46.624802,Білозерка,Белозёрка
711587,Borshchiv,UA,26.04347,48.803322,Борщів,Борщёв
712260,Beryslav,UA,33.428379,46.841518,Берислав,Берислав
712794,Barvinkove,UA,37.020512,48.909698,Барвінкове,Барвенково
712559,Bilopillya,UA,34.31287,51.150162,Білопілля,Белополье
712492,Belyary,UA,31.031811,46.623199,Білярі,Беляры
707202,Bohdanivka,UA,29.107809,48.642208,Богданівка,Богдановка
712488,Bilyayivka,UA,30.21678,46.483189,Біляївка,Беляевка
712887,Balovnoye,UA,31.886169,47.051109,Баловне,Баловное
711350,Bucha,UA,30.212009,50.543449,Буча,Буча
712165,Bila Tserkva,UA,30.112089,49.809391,Біла Церква,Белая Церковь
712967,Bakhmach,UA,32.756939,51.180759,Бахмач,Бахмач
710981,Bytkiv,UA,24.47398,48.629681,Битків,Бытков
710995,Bystrytsya,UA,24.245449,48.459309,Бистриця,Быстрица
711024,Bykivka,UA,27.983141,50.29285,Биківка,Быковка
711105,Bushtyno,UA,23.48579,48.051208,Буштино,Буштыно
711116,Buryn,UA,33.835232,51.19912,Буринь,Бурынь
711268,Budy,UA,36.02243,49.893372,Буди,Буды
711348,Buchach,UA,25.38798,49.062538,Бучач,Бучач
711398,Broska,UA,28.783001,45.37328,Броска,Броска
711400,Broshniv-Osada,UA,24.197479,48.996201,Брошнів-Осада,Брошнев-Осада
711435,Brylivka,UA,33.147209,46.424759,Брилівка,Брилёвка
711459,Bratslav,UA,28.940701,48.822571,Брацлав,Брацлав
711518,Boyany,UA,26.12624,48.270771,Бояни,Бояны
711536,Borzna,UA,32.426899,51.254639,Борзна,Борзна
711629,Boromlya,UA,34.970421,50.618382,Боромля,Боромля
711635,Borodyanka,UA,29.920099,50.64484,Бородянка,Бородянка
711637,Borodino,UA,29.241671,46.302502,Бородіно,Бородино
711752,Bilshivtsi,UA,24.75,49.183331,Більшівці,Большовцы
711850,Bolekhiv,UA,23.864349,49.066071,Болехів,Болехов
711952,Bohdan,UA,24.352221,48.041222,Богдан,Богдан
712003,Bobrka,UA,24.28874,49.64093,Бібрка,Бобрка
712023,Bobovo,UA,22.895849,48.071659,Бобово,Бобово
712041,Blyznyuky,UA,36.55505,48.85775,Близнюки,Близнюки
712091,Blahodatne,UA,38.484921,47.87928,Благодатне,Благодатное
712092,Blagodatnoye,UA,37.41898,47.70013,Благодатне,Благодатное
712131,Biryukove,UA,39.73843,47.95631,Криничне,Криничное
712181,Bezimenne,UA,37.938148,47.107159,Безіменне,Безымянное
712200,Bezlyudivka,UA,36.295158,49.871849,Безлюдівка,Безлюдовка
712276,Berezovo,UA,23.474001,48.309429,Березово,Берёзово
712300,Berezivka,UA,35.71167,49.441071,Березівка,Березовка
712312,Berezivka,UA,30.907801,47.204288,Березівка,Березовка
712336,Bereznyky,UA,23.21982,48.514061,Березники,Березники
712339,Bereznehuvate,UA,32.84993,47.307831,Березнегувате,Березнеговатое
712343,Berezna,UA,31.784559,51.571602,Березна,Березна
712349,Berezyne,UA,29.202221,46.229439,Березине,Березино
712387,Berezanka,UA,31.38802,46.852619,Березанка,Березанка
712416,Berestechko,UA,25.11071,50.36047,Берестечко,Берестечко
712430,Berehomet,UA,25.348551,48.178822,Берегомет,Берегомет
712477,Bili Oslavy,UA,24.700781,48.487221,Білі Ослави,Белые Ославы
712515,Beloye,UA,39.05051,48.495232,Біле,Белое
712569,Bilokurakyne,UA,38.730671,49.5341,Білокуракине,Белокуракино
712588,Belogorovka,UA,38.248219,48.92503,Білогорівка,Белогоровка
712602,Bilky,UA,23.132481,48.315029,Білки,Белки
712613,Belitskoye,UA,37.18111,48.406422,Білицьке,Белицкое
712656,Bila Krynytsya,UA,29.470409,50.63982,Біла Криниця,Белая Криница
712667,Belaya,UA,25.77059,49.028999,Біла,Белая
712682,Bekhtery,UA,32.292671,46.250992,Бехтери,Бехтери
712715,Bazaliya,UA,26.47331,49.712669,Базалія,Базалия
712745,Baturyn,UA,32.877941,51.345669,Батурин,Батурин
712839,Baranovka,UA,27.662201,50.296909,Баранівка,Барановка
712871,Banyliv,UA,25.34549,48.366119,Банилів,Банилов
712895,Balky,UA,34.943958,47.383362,Балки,Балки
712992,Baherove,UA,36.29705,45.374168,Багерове,Багерово
713055,Babanka,UA,30.448271,48.709709,Бабанка,Бабанка
710878,Chekhovo,UA,34.133331,44.5,Чехове,Чехово
710425,Chokolovka,UA,30.450001,50.416668,Чоколівка,Чоколовка
710680,Chernoslivka,UA,34.75,44.950001,Чорносливка,Черносливка
710734,Chernihivs’ka Oblast’,UA,32,51,Чернігівська область,Черниговская область
710687,Chornomorske,UA,32.699722,45.503887,Чорноморське,Черноморское
710655,Chernyakovo,UA,36.181667,45.277779,Чернякове,Черняково
688986,Chernihivka,UA,34.599998,46.150002,Чернігівка,Черниговка
710531,Chervonoznamenka,UA,30.299999,47.016666,Знам'янка,Знаменка
710720,Chernivets’ka Oblast’,UA,26,48.25,Чернівецька область,Черновицкая область
710802,Cherkas’ka Oblast’,UA,31,49,Черкаська область,Черкасская область
806450,Chernyaki,UA,36.454189,50.085377,Черняки,Черняки
812926,Chunikhin,UA,36.33667,49.946941,Чунихін,Чуныхин
710600,Chervona-Shakhtarka,UA,36.299999,49.033329,Червона-Шахтарка,Червона-Шахтарка
7031339,Chonhar,UA,34.539871,46.032261,Чонгар,Чонгар
710454,Chysten’ke,UA,34.038979,44.882568,Чистеньке,Чистенькое
710958,Chagor,UA,25.993919,48.243301,Чагор,Чагор
710719,Chernivtsi,UA,25.94034,48.291489,Чернівці,Черновцы
710554,Chervonograd,UA,24.23514,50.391048,Червоноград,Червоноград
710403,Chornobyl’,UA,30.22249,51.27359,Чорнобиль,Чернобыль
710735,Chernihiv,UA,31.28488,51.505508,Чернігів,Чернигов
710791,Cherkasy,UA,32.062069,49.428539,Черкаси,Черкассы
710374,Chuhuyiv,UA,36.68803,49.83588,Чугуїв,Чугуев
710381,Chudniv,UA,28.117451,50.05204,Чуднів,Чуднов
710409,Chop,UA,22.205549,48.43198,Чоп,Чоп
710513,Chervonyy Pakhar’,UA,29.683331,50.683331,Пісківка,Песковка
710342,Chutove,UA,35.160259,49.710419,Чутове,Чутово
710663,Chernyakhiv,UA,28.670179,50.45652,Черняхів,Черняхов
710552,Chervonohryhorivka,UA,34.538872,47.622978,Червоногригорівка,Червоногригоровка
710400,Chortkiv,UA,25.79804,49.01709,Чортків,Чортков
710716,Chornobay,UA,32.323872,49.670792,Чорнобай,Чернобай
710548,Chervonopartizansk,UA,39.796181,48.07613,Червонопартизанськ,Червонопартизанск
710915,Chasov Yar,UA,37.857239,48.593479,Часів Яр,Часов Яр
710935,Chaplynka,UA,33.540272,46.36507,Чаплинка,Чаплинка
710408,Chopovychi,UA,28.953341,50.833248,Чоповичі,Чоповичи
710473,Chyhyryn,UA,32.655491,49.083759,Чигирин,Чигирин
701294,Chudey,UA,25.62208,48.052471,Чудей,Чудей
710368,Chulakivka,UA,32.351398,46.357632,Чулаківка,Чулаковка
710463,Chynadiyovo,UA,22.821699,48.481789,Чинадійово,Чинадиево
710534,Chervone,UA,34.067291,51.770061,Есмань,Эсмань
710538,Chervone,UA,28.864531,49.956429,Червоне,Червоное
710587,Chervonaya Sloboda,UA,32.146431,49.378899,Червона Слобода,Червоная Слобода
710615,Chortomlyk,UA,34.141979,47.62315,Чортомлик,Чертомлык
710652,Chernyatyn,UA,25.44832,48.660339,Чернятин,Чернятин
710653,Chornyanka,UA,33.359039,46.652222,Чорнянка,Чернянка
710669,Chornukhy,UA,32.941959,50.267319,Чорнухи,Чернухи
710684,Chornopillya,UA,34.63916,45.043991,Чорнопілля,Чернополье
710698,Chornoliztsi,UA,24.89576,48.830341,Чорнолізці,Чернолозцы
710715,Chornobayivka,UA,32.553711,46.694118,Чорнобаївка,Чернобаевка
710718,Cherniyiv,UA,24.713881,48.856579,Черніїв,Черниев
710741,Chernivtsi,UA,28.114731,48.542259,Чернівці,Черновцы
710755,Chernelytsya,UA,25.42477,48.812069,Чернелиця,Чернелица
710940,Chapayeve,UA,35.874859,49.366249,Слобожанське,Слобожанское
710947,Chapayevka,UA,30.45137,49.38179,Калинове,Калиново
710950,Chapayevka,UA,36.34507,47.471142,Воскресенка,Воскресенка
709584,Druzhba,UA,33.945278,52.042778,Дружба,Дружба
709624,Dravtse,UA,22.333332,48.583332,Дравці,Дравцы
709930,Dnipro,UA,34.98333,48.450001,Дніпро,Днепр
709716,Donets’ka Oblast’,UA,37.5,48,Донецька область,Донецкая область
709717,Donetsk,UA,37.799999,48,Донецьк,Донецк
710276,Darnitsa,UA,30.633333,50.433334,Дарниця,Дарница
709602,Drovyanka,UA,34.099998,44.783333,Дров'янка,Дровянка
709681,Doroshivka,UA,33.858891,52.029167,Дорошівка,Дорошовка
709761,Dolossy,UA,34.200001,44.533333,Совєтське,Советское
710334,Dachne,UA,34.983334,44.883331,Дачне,Дачное
710298,Danilovka,UA,34.25,44.516666,Данилівка,Даниловка
710315,Dal’niye Kamyshi,UA,35.483334,45.116669,Дальні Комиші,Дальние Камыши
796931,Dzhardzhava,UA,36.417778,45.340557,Джарджава,Джарджава
709334,Dzhankoy,UA,34.400002,45.716667,Джанкой,Джанкой
709367,Dymovka,UA,34.450001,45.700001,Побєдне,Победное
710013,Dmitriyevka,UA,35.183334,46.700001,Якимівка,Акимовка
710299,Danylo-Ivanivka,UA,35.274723,46.746666,Данило-Іванівка,Данило-Ивановка
710189,Demidovka,UA,30.25,47.766666,Демидівка,Демидовка
709929,Dnipropetrovska Oblast',UA,35,48.5,Дніпропетровська область,Днепропетровская область
6723020,Dal'nya Zhuravlivka,UA,36.272141,50.012501,Журавлiвка,Журавлёвка
710324,Dalëkiy,UA,35.283329,46.950001,Далекий,Далёкий
707592,Dolyns’ke,UA,35.207218,46.77861,Долинське,Долинское
7048363,Druzhba,UA,34.994579,46.54496,Дружба,Дружба
709865,Dobroye Utro,UA,34.683331,46.283329,Добрий Ранок,Доброе Утро
7019906,Dibrivka,UA,34.32132,45.568619,Дібрівка,Дубровка
710297,Danilovka,UA,34.299999,45.48333,Данилівка,Даниловка
709344,Dzhaga-Mamysh,UA,34.083328,45.183331,Сухоріччя,Сухоречье
709325,Dzhefar-Berdy,UA,34.283329,44.900002,Дружне,Дружное
710141,Denysivka,UA,34.22234,44.92186,Денисівка,Денисовка
6986279,Druzhne,UA,34.290379,44.89592,Дружне,Дружное
616743,Druzhkovka,UA,37.552589,48.630131,Дружкiвка,Дружковка
710098,Derhachy,UA,36.12112,50.10659,Дергачі,Дергачи
709932,Kamianske,UA,34.6021,48.511341,Кам‘янське,Каменское
710129,Derazhnya,UA,27.433821,49.269199,Деражня,Деражня
709983,Dmytrivka,UA,32.71645,48.796902,Дмитрівка,Дмитровка
710229,Debaltsevo,UA,38.4049,48.340721,Дебальцеве,Дебальцево
709373,Dymer,UA,30.302601,50.786469,Димер,Дымер
709296,Dz’vinogrud,UA,25.4,49.083328,Звенигород,Звенигород
709611,Drogobych,UA,23.50561,49.349911,Дрогобич,Дрогобыч
709540,Dubno,UA,25.73432,50.416939,Дубно,Дубно
709399,Dvorichna,UA,37.68568,49.849628,Дворічна,Двуречная
710041,Dykanka,UA,34.52787,49.825008,Диканька,Диканька
710202,Dilyatyn,UA,24.62466,48.52354,Делятин,Делятин
709354,Dzerzhynsk,UA,37.84787,48.398689,Торецьк,Торецк
710020,Dluga-Strona,UA,24.633329,49.966671,Буськ,Буск
709429,Dunaivtsi,UA,26.856359,48.889091,Дунаївці,Дунаевцы
709547,Dublyany,UA,23.38718,49.498322,Дубляни,Дубляны
709755,Dolyna,UA,24.009439,48.973301,Долина,Долина
709493,Dubrovytsya,UA,26.565029,51.574379,Дубровиця,Дубровица
709782,Dolynska,UA,32.764488,48.110409,Долинська,Долинская
709835,Dokuchayevsk,UA,37.67384,47.74773,Докучаєвськ,Докучаевск
709900,Dobropolye,UA,37.085239,48.461472,Добропілля,Доброполье
709960,Dniprorudne,UA,34.976521,47.381691,Дніпрорудне,Днепрорудное
709295,Dzvinogrud,UA,24.25,49.73333,Звенигород,Звенигород
709450,Duliby,UA,23.815319,49.231339,Дуліби,Дулибы
709465,Dudchany,UA,33.763901,47.18557,Дудчани,Дудчаны
709516,Dubove,UA,23.88954,48.17205,Дубове,Дубовое
709546,Dublyany,UA,24.08637,49.90411,Дубляни,Дубляны
709587,Druzhba,UA,25.45055,49.042511,Трибухівці,Трибуховцы
709630,Drahovo,UA,23.549141,48.235729,Драгово,Драгово
709643,Drabiv,UA,32.152908,49.96302,Драбів,Драбов
709665,Dovbysh,UA,27.987419,50.373322,Довбиш,Довбыш
709740,Domanivka,UA,30.98852,47.63192,Доманівка,Доманёвка
709808,Dovhe,UA,23.279039,48.365269,Довге,Долгое
709856,Dobryanka,UA,31.185671,52.063141,Добрянка,Добрянка
709869,Dobre,UA,34.226608,44.866322,Добре,Доброе
709940,Dnipryany,UA,33.272881,46.746311,Дніпряни,Днепряны
709954,Dniprovka,UA,34.61805,47.429451,Дніпровка,Днепровка
710007,Dmytrivka,UA,38.936611,47.936111,Дмитрівка,Дмитровка
710032,Dymytrove,UA,32.983471,48.60767,Олександрійське,Александрийское
710033,Dmytrivka,UA,28.986389,45.971668,Дмитрівка,Дмитровка
710071,Desna,UA,30.760481,50.927311,Десна,Десна
710214,Degtyari,UA,32.770119,50.582642,Дігтярі,Дегтяри
710243,Davydivka,UA,25.56461,48.120991,Давидівка,Давыдовка
710260,Dashev,UA,29.425591,49.00449,Дашів,Дашев
7280677,Denyshi,UA,28.40395,50.214149,Дениші,Дениши
709267,Eski Yurt,UA,34.900002,44.950001,Ескі-Юрт,Эски-Юрт
709273,Eriklik,UA,34.133331,44.466671,Гірне,Горное
709276,Energodar,UA,34.657398,47.49865,Енергодар,Энергодар
709270,Eskhar,UA,36.58831,49.79866,Есхар,Эсхар
709112,Foros,UA,33.783333,44.400002,Форос,Форос
709151,Fersmanove,UA,34.166668,44.900002,Ферсманове,Ферсманово
709161,Feodosiya,UA,35.383331,45.033333,Феодосія,Феодосия
709077,Frunzenskiy,UA,34.916668,48.566666,Фрунзенський,Фрунзенский
709083,Fruktove,UA,33.599689,44.68045,Фруктове,Фруктовое
709250,Fasovaya,UA,29.799999,50.433331,Фасівочка,Фасовочка
709248,Fastiv,UA,29.9177,50.076698,Фастів,Фастов
709071,Frunzivka,UA,29.75,47.333328,Захарівка,Захарьевка
709074,Frunzevka,UA,33.083328,45.26667,Штормове,Штормовое
709078,Frunze,UA,38.75444,48.668629,Сентянівка,Сентяновка
709082,Frunze,UA,33.629559,45.026878,Фрунзе,Фрунзе
709114,Fontanka,UA,30.86071,46.56255,Фонтанка,Фонтанка
708408,Gornaya Zdravnitsa,UA,34.133331,44.466667,Гірська Здравниця,Горная Здравница
708507,Goncharova,UA,35.266666,44.983334,Гончарова,Гончарова
708953,Gaspra,UA,34.099998,44.433334,Гаспра,Гаспра
708506,Goncharovka,UA,35.166668,45.066666,Первомайське,Первомайское
708662,Gnorovskoye,UA,35.266666,48.033333,Гнаровське,Гнаровское
708633,Gogulina,UA,26.216667,48.233334,Зелений Гай,Зелёный Гай
708266,Goryanovskoye,UA,34.866669,48.583332,Горянівське,Горяновское
708545,Golubinoye,UA,22.966667,48.566666,Голубине,Голубиное
707800,Gutertal’,UA,35.200001,46.75,Кирпичне,Кирпичное
708421,Gorki,UA,37.549999,48.716671,Гірки,Горки
707928,Gubinikha,UA,35.254719,48.810829,Губиниха,Губиниха
708395,Gornyak,UA,37.373089,48.055698,Гірник,Горняк
708367,Gorodishche,UA,35.845509,48.518162,Городище,Городище
708928,Gavrilovka,UA,36.049999,49.98333,Гаврилівка,Гавриловка
708431,Gorishni Plavni,UA,33.650002,49.033329,Горішні Плавні,Горишние Плавни
708784,Glevakha,UA,30.327061,50.274231,Глеваха,Глеваха
708553,Golta,UA,30.862591,48.027969,Голта,Голта
708179,Grebënki,UA,30.193211,49.95536,Гребінки,Гребёнки
708296,Gorokhov,UA,24.76148,50.501862,Горохів,Горохов
709034,Galich,UA,24.72578,49.121792,Галич,Галич
707921,Guchok,UA,22.783331,49.566669,Гучок,Гучёк
708210,Gradizhsk,UA,33.136131,49.234581,Градизьк,Градижск
708273,Gorskoye,UA,38.495411,48.73468,Гірське,Горское
708695,Gnedin,UA,30.71059,50.328999,Гнідин,Гнедин
707860,Hurzuf,UA,34.283333,44.549999,Гурзуф,Гурзуф
708546,Holubynka,UA,33.900002,44.599998,Голубинка,Голубинка
708727,Hlybokyy Yar,UA,33.933334,44.766666,Глибокий Яр,Глубокий Яр
708879,Heneral’s’ke,UA,34.483334,44.799999,Генеральське,Генеральское
708877,Heniches’ka Hirka,UA,34.833332,46.083332,Генічеська Гірка,Геническая Горка
708003,Hrushivka,UA,34.983334,45.016666,Грушівка,Грушевка
708632,Hola Prystan,UA,32.525833,46.520557,Гола Пристань,Голая Пристань
707898,Hulyaypole,UA,36.257778,47.665279,Гуляйполе,Гуляйполе
708120,Hryhorivka,UA,35.341389,47.69278,Григорівка,Григоровка
830068,Hromy,UA,30.184999,48.666389,Громи,Громы
707777,Hvardiys’ke,UA,34.018452,45.120861,Гвардійське,Гвардейское
708140,Hresivs’kyy,UA,34.026569,45.008041,Гресівський,Грэсовский
709054,Hadyach,UA,33.99099,50.37112,Гадяч,Гадяч
708663,Hnivan’,UA,28.345921,49.08897,Гнівань,Гнивань
708320,Horodnya,UA,31.59741,51.89085,Городня,Городня
708901,Haysyn,UA,29.389771,48.811432,Гайсин,Гайсин
707758,Hlukhiv,UA,33.916199,51.678219,Глухів,Глухов
708380,Horodenka,UA,25.501631,48.672741,Городенка,Городенка
708753,Hlobyne,UA,33.25959,49.38784,Глобине,Глобино
708313,Horodok,UA,23.64806,49.784649,Городок,Городок
707757,Hlyboka,UA,25.929331,48.08971,Глибока,Глыбокая
708878,Henichesk,UA,34.803398,46.175919,Генічеськ,Геническ
8129116,Hora,UA,30.859909,50.371201,Гора,Гора
707752,Horodok,UA,26.583941,49.163738,Городок,Городок
707753,Horlivka,UA,38.054192,48.346981,Горлiвка,Горловка
708366,Horodyshche,UA,31.445129,49.284889,Городище,Городище
708898,Hayvoron,UA,29.86791,48.339581,Гайворон,Гайворон
707770,Hvizd,UA,24.55055,48.685169,Гвізд,Гвозд
707786,Huty,UA,35.343941,50.133221,Гути,Гуты
707840,Husyatyn,UA,26.2141,49.072632,Гусятин,Гусятин
708057,Hryshkivtsi,UA,28.60383,49.93528,Гришківці,Гришковцы
708082,Hrymayliv,UA,26.01112,49.332081,Гримайлів,Гримайлов
708181,Hrebinka,UA,32.4361,50.117119,Гребінка,Гребёнка
708251,Hostomel,UA,30.2651,50.568409,Гостомель,Гостомель
708257,Hoshcha,UA,26.674351,50.6003,Гоща,Гоща
708324,Horodnytsya,UA,27.316759,50.806969,Городниця,Городница
708330,Horodne,UA,28.84833,45.890831,Городнє,Огородное
708351,Horodyshche,UA,26.36573,50.639648,Городище,Городище
708403,Hornostayivka,UA,33.728989,47.007771,Горностаївка,Горностаевка
708434,Horinchovo,UA,23.43475,48.27076,Горінчово,Горинчово
708569,Holovyne,UA,28.8253,50.47118,Головине,Головино
708613,Holoby,UA,25.007669,51.08651,Голоби,Голобы
707716,Il’ichëvka,UA,34.383331,44.666668,Іллічівка,Ильичевка
707611,Imshanaya,UA,33.783333,51.900002,Імшана,Имшана
707305,Izobil’ne,UA,34.352059,44.706944,Ізобільне,Изобильное
707470,Ivano-Frankivs’ka Oblast’,UA,24.5,48.5,Івано-Франківська область,Ивано-Франковская область
707552,Isar,UA,34.099998,44.5,Ісар,Исар
712576,Inkerman,UA,33.599998,44.599998,Інкерман,Инкерман
707526,Istoki,UA,33.833332,44.583332,Істоки,Истоки
707647,Imeni Lenina,UA,36.774723,46.636112,Імені Леніна,Имени Ленина
6722153,Ivanivka,UA,36.202209,50.005161,Іванівка,Ивановка
806512,Imeni Frunze,UA,36.33852,49.965851,Імені Фрунзе,Имени Фрунзе
6725459,Il’icha,UA,36.171322,50.302448,Нова Козача,Новая Казачья
707356,Ivanovskiy,UA,35.366669,47.883331,Іванівський,Ивановский
7021003,Izumrudne,UA,34.410198,45.737942,Ізумрудне,Изумрудное
699844,Ivanivka,UA,34.24807,44.937309,Іванівка,Ивановка
707711,Il’ichëvskoye,UA,34.966671,44.849998,Іллічівське,Ильичёвское
707663,Imeni Artëma,UA,33.366669,47.933331,Імені Артема,Имени Артема
707511,Ivanenki,UA,35.283329,48.033329,Іваненки,Иваненки
707565,Irpin,UA,30.250549,50.521751,Ірпінь,Ирпень
707688,Illichivsk,UA,30.654779,46.304951,Чорноморськ,Черноморск
707308,Izmayil,UA,28.84079,45.349289,Ізмаїл,Измаил
707559,Irshava,UA,23.03846,48.316669,Іршава,Иршава
707296,Izyaslav,UA,26.821251,50.119469,Ізяслав,Изяслав
707679,Ilovaysk,UA,38.202358,47.92498,Іловайськ,Иловайск
686762,Ivano-Frankove,UA,23.73333,49.916672,Івано-Франкове,Ивано-Франково
707489,Ivankiv,UA,29.89426,50.938641,Іванків,Иванков
707744,Ichnya,UA,32.394249,50.862579,Ічня,Ичня
707689,Illarionovo,UA,35.275391,48.40657,Іларіонове,Илларионово
707471,Ivano-Frankivsk,UA,24.709721,48.921501,Івано-Франківськ,Ивано-Франковск
707488,Ivan’kov,UA,32.833328,51.150002,Іванків,Иванков
707292,Izyum,UA,37.248482,49.208752,Ізюм,Изюм
707317,Iza,UA,23.328659,48.215248,Іза,Иза
707451,Ivanivka,UA,30.46998,46.975689,Іванівка,Ивановка
707453,Ivanivka,UA,34.552979,46.720821,Іванівка,Ивановка
707529,Ispas,UA,25.274059,48.29734,Іспас,Испас
707695,Illintsi,UA,29.21773,49.10479,Іллінці,Ильинцы
703845,Kryvyy Rih,UA,33.349998,47.916668,Кривий Ріг,Кривой Рог
703446,Kyyivs’ka Oblast’,UA,30.5,50.25,Київська область,Киевская область
703776,Kudryne,UA,33.950001,44.700001,Кудрине,Кудрино
704360,Krasnopeshchernaya,UA,34.333332,44.866669,Краснопечерне,Краснопещерное
703973,Krucha,UA,34.650002,46.183334,Круча,Круча
707155,Kalynivka,UA,28.526079,49.453892,Калинівка,Калиновка
687556,Karolino-Buhaz,UA,30.526091,46.14492,Кароліно-Бугаз,Каролино-Бугаз
703448,Kyiv,UA,30.516666,50.433334,Київ,Киев
703498,Kuybysheve,UA,33.866669,44.650002,Куйбишеве,Куйбышево
704201,Krasnyy Mak,UA,33.783333,44.650002,Красний Мак,Красный Мак
703625,Kurenëvka,UA,30.466667,50.483334,Куренівка,Куренёвка
703596,Kurortne,UA,35.150002,44.900002,Курортне,Курортное
704324,Krasnoselivka,UA,34.633331,44.916668,Красноселівка,Красносёловка
706557,Kazil’,UA,34.5,44.950001,Казанли,Казанлы
705127,Konrat,UA,34.416668,44.983334,Пасічне,Пасечное
706098,Khutor Fomina,UA,31.766666,51.200001,Хутір Фоміна,Хутор Фомина
704218,Krasnyye Partizany,UA,31.783333,50.950001,Володькова Дівиця,Володькова Дивыця
703757,Kukhmisterskaya Sloboda,UA,30.6,50.416668,Кухмістерська слобідка,Кухмистерская слободка
705514,Kocherovo,UA,29.35,50.349998,Кочерів,Кочеров
706021,Khutor Pen’kovatoye,UA,29.416668,50.366669,Хутір Пенкувате,Хутор Пенковатое
704183,Krasnyy Shlyakh,UA,29.433332,50.366669,Червоний Шлях,Красный Путь
706082,Khutor Kalinovka,UA,29.799999,50.416668,Калинівка,Калиновка
705015,Kopylov,UA,29.883333,50.400002,Копилів,Копылов
705303,Kolonshchina,UA,29.966667,50.450001,Колонщина,Колонщина
706081,Khutor Kalinovka,UA,30.833332,50.566666,Калинівка,Калиновка
707123,Kalita,UA,31.016666,50.75,Калита,Калита
704393,Krasnogorovka,UA,37.516666,48.016666,Красногорівка,Красногоровка
706043,Khutor Naumovskiy,UA,32,51,Хутір Наумівський,Хутор Наумовский
703586,Kurpaty,UA,34.116669,44.433334,Курпати,Курпаты
705440,Kolkhozne,UA,33.883331,44.466667,Колхозне,Колхозное
706372,Khmel’nyts’ke,UA,33.650002,44.549999,Хмельницьке,Хмельницкое
704377,Krasnokamenka,UA,34.283333,44.566666,Краснокам'янка,Краснокаменка
697124,Koktebel,UA,35.249376,44.95754,Коктебель,Коктебель
704259,Krasnoye Selo,UA,35.083332,45.016666,Красне Село,Красное Село
706524,Kerch,UA,36.475834,45.358334,Керч,Керчь
710320,Kamyshly,UA,33.650002,44.666668,Камишли,Камышлы
706515,Kerleut,UA,34.416668,45.733334,Чорноземне,Чернозёмное
704362,Krasnoperekopsk,UA,33.792221,45.955002,Красноперекопськ,Красноперекопск
706442,Khersons’ka Oblast’,UA,34,46.5,Херсонська область,Херсонская область
704051,Krivaya Balka,UA,30.683332,46.5,Крива Балка,Кривая Балка
706333,Kholodnaya Balka,UA,30.583332,46.599998,Холодна Балка,Холодная Балка
703972,Krucha,UA,35.400002,46.849998,Круча,Круча
706225,Khozyain,UA,35.366669,47.299999,Хазяїн,Хозяин
703555,Kushuhum,UA,35.209167,47.714443,Кушугум,Кушугум
705811,Kirovohrads’ka Oblast’,UA,32,48.5,Кіровоградська область,Кировоградская область
706244,Khotyn,UA,26.5,48.483334,Хотин,Хотин
705392,Kolomyya,UA,25.040277,48.530556,Коломия,Коломыя
706370,Khmel’nyts’ka Oblast’,UA,27,49.5,Хмельницька область,Хмельницкая область
704232,Krasnyy,UA,23.700001,48.616669,Красний,Красный
706950,Kamieniec Podolski,UA,26.566668,48.666668,Кам'янець-Подільський,Каменец-Подольский
705282,Kolubayevtsy,UA,26.666668,48.733334,Колубаївці,Колубаевцы
706482,Kharkivs’ka Oblast’,UA,36.5,49.5,Харківська область,Харьковская область
706483,Kharkiv,UA,36.25,50,Харків,Харьков
706587,Kozacha Lopan’,UA,36.187229,50.339199,Козача Лопань,Казачья Лопань
705240,Komarovka,UA,36.066669,49.866669,Комарівка,Комаровка
812877,Krasnyy Oktyabr’,UA,36.025558,49.778889,Селекційне,Селекционное
706748,Karlovka,UA,35.933331,49.76667,Вільхуватка,Ольховатка
812881,Kislovskiy,UA,36.02528,49.760281,Лелюки,Лелюки
809657,Kooperatorka,UA,36.316391,49.264439,Кооператорка,Кооператорка
704363,Krasnopavlivka,UA,36.327221,49.137218,Краснопавлівка,Краснопавловка
808829,Kostyanka,UA,36.285278,49.00639,Костянка,Костянка
705214,Kommercheskiy,UA,35.316669,46.916672,Обільне,Обильное
7046810,Kommunarskoye,UA,34.785191,46.372169,Комунарське,Коммунарское
7046679,Krasne Znam”ya,UA,34.575668,46.083031,Красне Знам'я,Красное Знамя
705053,Kopani,UA,34.462528,45.85004,Копані,Копани
7020274,Kostyantynivka,UA,34.368149,45.674541,Костянтинівка,Константиновка
704253,Krasnoye Znamya,UA,34.299999,45.549999,Червоне знам'я,Красное знамя
704381,Krasnohvardiys’ke,UA,34.30024,45.501621,Красногвардійське,Красногвардейское
7018274,Krasnyy Partyzan,UA,34.20821,45.406109,Красний Партизан,Красный Партизан
704431,Krasna Zor’ka,UA,34.037819,45.135479,Красна Зорька,Красная Зорька
6976172,Komsomols’ke,UA,34.016312,45.019669,Комсомольське,Комсомольское
707240,Kakhovskoye,UA,34.066669,44.98333,Каховське,Каховское
704416,Krasnoarmeyskoye,UA,33.683331,44.849998,Віліне,Вилино
7040014,Kocherhine,UA,33.750011,44.83709,Кочергіне,Кочергино
704121,Krenichi,UA,30.505831,50.241291,Креничі,Креничи
6957702,Krasnogorovka,UA,37.514011,48.00769,Красногорівка,Красногоровка
8037857,Krasnyy Prohres,UA,34.036709,52.158852,Прогрес,Прогресс
705758,Kislitskiy,UA,35.51667,47.48333,Кислицький,Кислицкий
706466,Khartsyzsk,UA,38.147282,48.042431,Харцизьк,Харцызск
705652,Klimashëvka,UA,26.993469,49.519989,Климашівка,Климашовка
703728,Kulebovka,UA,35.187908,48.632038,Кулебівка,Кулебовка
706448,Kherson,UA,32.617802,46.655811,Херсон,Херсон
705812,Kropyvnytskyi,UA,32.259701,48.513199,Кропивницький,Кропивницкий
706369,Khmelnytskyy,UA,26.996531,49.421612,Хмельницький,Хмельницкий
703464,Kuznetsovsk,UA,25.851903,51.354819,Вараш,Вараш
706165,Khust,UA,23.299089,48.179298,Хуст,Хуст
706571,Kozyatyn,UA,28.833851,49.71431,Козятин,Казатин
707099,Kalush,UA,24.373079,49.011871,Калуш,Калуш
810039,Kuznetsovka,UA,38.072048,48.278042,Кузнецівка,Кузнецовка
705135,Konotop,UA,33.202629,51.240318,Конотоп,Конотоп
704920,Korolevo,UA,23.136589,48.15247,Королево,Королёво
704403,Krasnodon,UA,39.737289,48.29229,Краснодон,Краснодон
704492,Krasyliv,UA,26.972521,49.651859,Красилів,Красилов
706736,Karnaukhovka,UA,34.73074,48.47821,Карнаухівка,Карнауховка
704422,Pokrovsk,UA,37.17585,48.281979,Покровськ,Покровск
704079,Krynychky,UA,34.46701,48.375511,Кринички,Кринички
704138,Kreminna,UA,38.217918,49.0495,Кремінна,Кременная
705104,Kostyantynivka,UA,37.706902,48.527699,Костянтинівка,Константиновка
707026,Kamenka-Na-Dnepre,UA,34.411461,47.48481,Кам'янка-Дніпровська,Каменка-Днепровская
704617,Kovel,UA,24.70867,51.21526,Ковель,Ковель
704204,Krasnyy Liman,UA,37.80225,48.988361,Лиман,Лиман
704000,Krolevets,UA,33.38475,51.547749,Кролевець,Кролевец
705115,Kostyantynivka,UA,35.422871,46.81673,Костянтинівка,Константиновка
704885,Korostyshiv,UA,29.056299,50.31723,Коростишів,Коростышев
704901,Korosten,UA,28.63855,50.95937,Коростень,Коростень
705598,Klyuchevaya,UA,33.349998,46.75,Ключове,Ключевое
705799,Kirovs’ke,UA,35.199871,45.229671,Кіровське,Кировское
704705,Kotel’va,UA,34.758621,50.068642,Котельва,Котельва
705730,Kivertsy,UA,25.45821,50.834251,Ківерці,Киверцы
809274,Kabachki,UA,38.458328,48.031109,Молодецьке,Молодецкое
705883,Kiliya,UA,29.26367,45.455181,Кілія,Килия
704881,Korotych,UA,36.040569,49.945518,Коротич,Коротыч
705818,Kirovo,UA,36.394642,48.870251,Квітневе,Квитневое
704525,Kozova,UA,25.15086,49.43544,Козова,Козова
704202,Krasnyy Luch,UA,38.937149,48.139542,Красний Луч,Красный Луч
705914,Khyriv,UA,22.85236,49.533321,Хирів,Хыров
704143,Kremenets,UA,25.72459,50.096931,Кременець,Кременец
706536,Kel’mentsi,UA,26.83457,48.465031,Кельменці,Кельменцы
707251,Kaharlyk,UA,30.82815,49.862331,Кагарлик,Кагарлык
704858,Korsun-Shevchenkivskyy,UA,31.25865,49.418941,Корсунь-Шевченківський,Корсунь-Шевченковский
707244,Kakhovka,UA,33.48698,46.813709,Каховка,Каховка
704839,Koryukivka,UA,32.248131,51.768768,Корюківка,Корюковка
704388,Krasnohrad,UA,35.440208,49.381401,Красноград,Красноград
706900,Kaniv,UA,31.460039,49.75182,Канів,Канев
703646,Kurakhovo,UA,37.282101,47.985222,Курахове,Курахово
707189,Kalyniv,UA,23.316669,49.549999,Калинiв,Калинов
704679,Kotovsk,UA,29.532049,47.753052,Подільськ,Подольск
704737,Kostopil’,UA,26.45192,50.87841,Костопіль,Костополь
705660,Klevan’,UA,25.97628,50.74305,Клевань,Клевань
705265,Komarno,UA,23.69952,49.627392,Комарно,Комарно
706634,Katerynopil’,UA,30.968229,48.955299,Катеринопіль,Катеринополь
705016,Kopychyntsi,UA,25.910259,49.104408,Копичинці,Копычинцы
707232,Kalanchak,UA,33.290699,46.256229,Каланчак,Каланчак
705403,Kolomak,UA,35.30442,49.839859,Коломак,Коломак
705544,Kobelyaky,UA,34.196529,49.148918,Кобеляки,Кобеляки
707133,Kalinova Popasnaya,UA,38.332642,48.608479,Калиново-Попасна,Калиново-Попасная
704573,Kozelets,UA,31.121401,50.913342,Козелець,Козелец
706289,Khorol,UA,33.278332,49.783669,Хорол,Хорол
810074,Krasnyy Pakhar’,UA,38.305,48.286671,Красний Пахар,Красный Пахарь
704670,Kotsyubinskoye,UA,30.329571,50.488361,Коцюбинське,Коцюбинское
707027,Kamionka Strumitowa,UA,24.344509,50.106548,Кам'янка-Бузька,Каменка-Бугская
703656,Kupjansk,UA,37.599838,49.720928,Куп'янськ,Купянск
705183,Komsomolske,UA,36.52618,49.597012,Слобожанське,Слобожанское
706546,Kehychivka,UA,35.761532,49.28656,Кегичівка,Кегичёвка
705844,Kirilovka,UA,32.033329,49.383331,Кирилівка,Кирилловка
704067,Krinichnyy,UA,35.299999,47.866669,Криничне,Криничное
706604,Kaydaki,UA,35.123981,48.376781,Старі Кодаки,Старые Кодаки
704147,Kremenchuk,UA,33.41972,49.097252,Кременчук,Кременчуг
704508,Kramatorsk,UA,37.55629,48.723049,Краматорськ,Краматорск
704608,Kivsharivka,UA,37.703571,49.62125,Ківшарівка,Ковшаровка
705809,Kirovsk,UA,38.642799,48.637508,Голубівка,Голубовка
706380,Khmilnyk,UA,27.957541,49.559792,Хмільник,Хмельник
706749,Karlivka,UA,35.129471,49.45668,Карлівка,Карловка
6559559,Komsomolsk,UA,33.645458,49.009731,Горішні Плавні,Горишние Плавни
703455,Kvasy,UA,24.27994,48.149731,Кваси,Квасы
703494,Kuybysheve,UA,36.649078,47.358002,Більмак,Бильмак
703514,Kuty,UA,25.179461,48.258678,Кути,Куты
703537,Kuteynykove,UA,38.288219,47.812271,Кутейникове,Кутейниково
703559,Kushnytsya,UA,23.25816,48.43988,Кушниця,Кушница
703706,Kulynychi,UA,36.384178,49.982269,Кулиничі,Кулиничи
703713,Kulykivka,UA,31.64661,51.373451,Куликівка,Куликовка
703716,Kulikov,UA,24.81757,50.31424,Куликів,Куликов
703844,Kryzhanivka,UA,30.79487,46.561668,Крижанівка,Крыжановка
703903,Kruty,UA,32.106339,51.059738,Крути,Круты
704010,Kryve Ozero,UA,30.349279,47.952419,Криве Озеро,Кривое Озеро
704048,Kryva Hora,UA,30.19978,51.384941,Крива Гора,Кривая Гора
704055,Kryva,UA,23.236469,48.17234,Крива,Крива
704074,Krinichnaya,UA,38.02597,48.12899,Кринична,Криничная
704118,Krepenskiy,UA,39.057999,48.077099,Кріпенський,Крепенский
704207,Krasnyy Kut,UA,38.797649,48.201382,Красний Кут,Красный Кут
704277,Krasnoye,UA,24.6134,49.914471,Красне,Красное
704290,Krasne,UA,32.7691,46.130878,Красне,Красное
704303,Krasnotorka,UA,37.532661,48.682041,Красноторка,Красноторка
704335,Krasnosilka,UA,30.77421,46.622581,Красносілка,Красносёлка
704343,Krasnopillya,UA,35.259651,50.774578,Краснопілля,Краснополье
704376,Krasnokutsk,UA,35.16275,50.066021,Краснокутськ,Краснокутск
704402,Krasnodon,UA,39.573738,48.308559,Краснодон,Краснодон
704469,Krasna,UA,24.70027,48.57571,Красна,Красная
704565,Kozhanka,UA,29.73806,49.979328,Кожанка,Кожанка
704724,Kostyantynivka,UA,31.135509,47.826599,Костянтинівка,Константиновка
704730,Kostryzhivka,UA,25.71316,48.654549,Кострижівка,Кострижевка
704764,Kosiv,UA,25.095751,48.310711,Косів,Косов
704772,Kosmach,UA,24.36731,48.750889,Космач,Космач
704773,Kosmach,UA,24.82052,48.32991,Космач,Космач
704915,Korop,UA,32.958611,51.56638,Короп,Короп
704949,Kornyn,UA,29.53581,50.095299,Корнин,Корнин
704968,Korets,UA,27.160549,50.616539,Корець,Корец
704972,Koreiz,UA,34.085159,44.433739,Кореїз,Кореиз
705034,Kopayhorod,UA,27.7969,48.859169,Копайгород,Копайгород
705198,Kompaniyivka,UA,32.207951,48.251148,Компаніївка,Компанеевка
705307,Koloniya Zastavye,UA,27.033331,50.816669,Колонія Застав'є,Колония Заставье
705431,Kolodenka,UA,26.31601,50.585609,Колоденка,Колоденка
705433,Kolochava,UA,23.6959,48.428509,Колочава,Колочава
705442,Kulevcha,UA,29.93614,46.030338,Кулевча,Кулевча
705493,Kodyma,UA,29.12463,48.098751,Кодима,Кодыма
705494,Kodra,UA,29.558741,50.594879,Кодра,Кодра
705512,Kochetok,UA,36.737228,49.880051,Кочеток,Кочеток
705524,Kobyzhcha,UA,31.504391,50.828541,Кобижча,Кобыжча
705540,Kobleve,UA,31.20804,46.664989,Коблеве,Коблево
705560,Knyazhichi,UA,30.783689,50.462749,Княжичі,Княжичи
705626,Klishkivtsi,UA,26.26231,48.43161,Клішківці,Клишковцы
705673,Klenovyy,UA,39.458801,48.119339,Кленовий,Кленовый
705681,Klembivka,UA,28.410919,48.390369,Клембівка,Клембовка
705689,Klavdiyevo-Tarasove,UA,30.011339,50.58416,Клавдієво-Тарасове,Клавдиево-Тарасово
705852,Kyrylivka,UA,35.367531,46.375919,Кирилівка,Кирилловка
705854,Kirikovka,UA,35.114899,50.364079,Кириківка,Кириковка
706200,Khrystynivka,UA,29.96806,48.824879,Христинівка,Христиновка
706232,Khotov,UA,30.468361,50.330681,Хотів,Хотов
706271,Khorostkiv,UA,25.92165,49.21114,Хоростків,Хоростков
706281,Khorosheve,UA,36.219479,49.852791,Хорошеве,Хорошево
706335,Kholmy,UA,32.600632,51.87096,Холми,Холмы
706352,Khodorov,UA,24.313601,49.406631,Ходорів,Ходоров
706434,Khymchyn,UA,25.148029,48.386391,Химчин,Химчин
706580,Kazanka,UA,32.82177,47.846249,Казанка,Казанка
706596,Kozachi Laheri,UA,32.9776,46.70372,Козачі Лагері,Казачьи Лагери
706612,Katyuzhanka,UA,30.13764,50.80595,Катюжанка,Катюжанка
706803,Karapyshi,UA,30.79002,49.642368,Карапиші,Карапыши
706883,Kapitanivka,UA,31.716709,48.917191,Капітанівка,Капитановка
706914,Kamysh-Zarya,UA,36.692982,47.327549,Комиш-Зоря,Камыш-Заря
706915,Kamyshnya,UA,33.68401,50.185871,Комишня,Камышня
706921,Kamyshevka Vtoraya,UA,29.83333,46.23333,Комишівка Друга,Камышовка Вторая
706941,Komyshuvakha,UA,35.52882,47.717579,Комишуваха,Камышеваха
706945,Komyshany,UA,32.507191,46.637161,Комишани,Камышаны
706987,Kamennyye Potoki,UA,33.526379,48.97974,Кам'яні Потоки,Каменные Потоки
707002,Kamennoye,UA,39.165649,48.169281,Кам'яне,Каменное
707025,Kamin-Kashyrskyy,UA,24.958639,51.624119,Камінь-Каширський,Камень-Каширский
707052,Kamianka,UA,32.103958,49.031799,Кам'янка,Каменка
707127,Kalyny,UA,23.8738,48.140781,Калини,Калины
707220,Kalchevaya,UA,28.814051,45.73737,Калчева,Калчева
707245,Kayiry,UA,33.705921,46.94537,Каїри,Каиры
707257,Kadubivtsi,UA,25.768709,48.58337,Кадубівці,Кадубовцы
707281,Kacha,UA,33.543869,44.776348,Кача,Кача
829745,Kopashnovo,UA,23.48457,48.2197,Копашново,Копашново
829795,Kirove,UA,35.695122,47.653111,Таврійське,Таврийское
860012,Krasni Okny,UA,29.460011,47.54044,Окни,Окны
864871,Kuchurhan,UA,29.789379,47.163021,Кучурган,Кучурган
706075,Khmil’,UA,27.35268,51.478821,Хміль,Хмель
705797,Kirovskoye,UA,38.363239,48.148251,Кіровське,Кировское
705798,Kirovs’ke,UA,33.077702,45.54504,Кіровське,Кировское
703363,Laspi,UA,33.731396,44.425337,Ласпі,Ласпи
703169,Lisne,UA,34.950001,44.933334,Лісне,Лесное
702907,Livadiya,UA,34.150002,44.466667,Лівадія,Ливадия
702463,Lyubymivka,UA,33.566666,44.666668,Любимiвка,Любимовка
702705,Luchyste,UA,34.400983,44.737101,Лучисте,Лучистое
703423,Lagernoye,UA,35.099998,44.883331,Сонячна Долина,Солнечная Долина
702741,Lozove,UA,34.160957,44.907745,Лозове,Лозовое
703168,Lesnaya,UA,34.349998,44.966667,Лесна,Лесная
702662,Luhove,UA,35.716667,45.233334,Лугове,Луговое
702962,Liski,UA,36.766666,46.766666,Ліски,Лиски
702657,Luhans’ka Oblast’,UA,39,49,Луганська область,Луганская область
702765,Lozovatka Vtoraya,UA,35.349998,48.433334,Лозуватка,Лозоватка
703014,Lipovaya Rosheha,UA,36.166672,49.950001,Липовий Гай,Липовая Роща
702417,Lyubotyn,UA,35.966671,49.950001,Люботин,Люботин
812917,Losevo,UA,36.377707,49.952587,Лосєве,Лосево
6986274,Lazarivka,UA,34.27541,44.927059,Лазарівка,Лазаревка
6988139,Lavanda,UA,34.366871,44.742569,Лаванда,Лаванда
702694,Lug,UA,24.58333,48.51667,Луг,Луг
702549,L’vivs’ka Oblast’,UA,24,50,Львівська область,Львовская область
702550,Lviv,UA,24.023239,49.838261,Львів,Львов
702569,Lutsk,UA,25.34244,50.759319,Луцьк,Луцк
702972,Lisichansk,UA,38.44207,48.90485,Лисичанськ,Лисичанск
703142,Letychiv,UA,27.63051,49.382629,Летичів,Летичев
702878,Lokachi,UA,24.649441,50.737,Локачі,Локачи
702844,Lopatin,UA,24.84831,50.220219,Лопатин,Лопатин
703071,Lyman,UA,36.46711,49.594799,Лиман,Лиман
702723,Lubny,UA,32.996941,50.016251,Лубни,Лубны
703311,Lebedyn,UA,31.52696,48.962421,Лебедин,Лебедин
613273,Lebedyn,UA,34.484901,50.585178,Лебедин,Лебедин
703428,Ladyzhyn,UA,29.23678,48.684959,Ладижин,Ладыжин
703061,Lymanske,UA,29.96722,46.655701,Лиманське,Лиманское
702563,Lutugino,UA,39.226749,48.405071,Лутугине,Лутугино
702658,Luhansk,UA,39.317059,48.567051,Луганськ,Луганск
702760,Lozova,UA,36.317551,48.88937,Лозова,Лозовая
702421,Lyuboml,UA,24.03727,51.226009,Любомль,Любомль
702459,Lyubymivka,UA,33.568619,46.810631,Любимівка,Любимовка
702477,Lyubech,UA,30.656919,51.702599,Любеч,Любеч
702486,Lyubar,UA,27.75918,49.920448,Любар,Любар
702491,Lysyanka,UA,30.82946,49.252289,Лисянка,Лысянка
702507,Lysa Hora,UA,31.10994,48.170589,Лиса Гора,Лысая Гора
702557,Luzhany,UA,25.77173,48.364922,Лужани,Лужаны
702612,Lukiv,UA,25.400591,51.052101,Луків,Луков
702679,Luhyny,UA,28.40057,51.08202,Лугини,Лугины
702774,Lozuvatka,UA,33.285809,48.057098,Лозуватка,Лозоватка
702782,Lozno-Oleksandrivka,UA,38.738079,49.83741,Лозно-Олександрівка,Лозно-Александровка
702834,Lopukhiv,UA,23.96382,48.365261,Лопухів,Лопухов
702874,Lokhvytsya,UA,33.260239,50.36776,Лохвиця,Лохвица
702898,Lyubashivka,UA,30.25976,47.837158,Любашівка,Любашёвка
702931,Lityn,UA,28.08094,49.325089,Літин,Литин
702971,Lysychovo,UA,23.289921,48.496769,Лисичово,Лисичово
703015,Lypova Dolyna,UA,33.797932,50.564281,Липова Долина,Липовая Долина
703017,Lypnyazhka,UA,31.076111,48.446941,Липняжка,Липняжка
703042,Lypcha,UA,23.38336,48.261082,Липча,Липча
703079,Lykhivka,UA,33.922791,48.687351,Лихівка,Лиховка
703144,Lesovy,UA,32.329189,50.689201,Лісові Сорочинці,Лесовые Сорочинцы
703261,Lenine,UA,35.777081,45.298569,Леніне,Ленино
703270,Lenina,UA,39.145561,48.42944,Леніна,Ленина
703317,Lazurne,UA,32.529549,46.084,Лазурне,Лазурное
703325,Lazi,UA,24.23333,48.066669,Лазі,Лази
703328,Lazeshchyna,UA,24.420099,48.26852,Лазещина,Лазещина
703397,Lanivtsi,UA,26.09082,49.863281,Ланівці,Лановцы
703410,Lanchyn,UA,24.75622,48.557812,Ланчин,Ланчин
703438,Ladan,UA,32.581779,50.519588,Ладан,Ладан
703447,Misto Kyiv,UA,30.516666,50.433334,Місто Київ,Город Киев
701619,Massandra,UA,34.183334,44.516666,Масандра,Массандра
700755,Morozovskiy,UA,35.416668,48.366669,Морозівське,Морозовское
700918,Mohyliv-Podilskyy,UA,27.798201,48.44598,Могилів-Подільський,Могилёв-Подольский
700181,Mykolayivka,UA,33.614429,44.96714,Миколаївка,Николаевка
796868,Mykhaylivka,UA,36.262699,45.28669,Михайлівка,Михайловка
701759,Martusovka,UA,30.866667,50.299999,Мартусівка,Мартусовка
700661,Mramorne,UA,34.25,44.816666,Мраморне,Мраморное
701500,Mayorovka,UA,33.266666,51.483334,Майорівка,Майоровка
701779,Markovtsy,UA,31.25,50.733334,Марківці,Марковцы
700924,Mogilëv,UA,30.35,53.900002,Могильов,Могилёв
700997,Miskhor,UA,34.083332,44.433334,Місхор,Мисхор
700182,Mykolayivka,UA,33.533333,44.549999,Миколаївка,Николаевка
694422,Misto Sevastopol’,UA,33.533333,44.599998,Місто Севастополь,Город Севастополь
701419,Mekenziyevy Gory,UA,33.583332,44.616669,Мекензієві гори,Мекензиевы горы
701947,Malyy Mayak,UA,34.366669,44.616669,Малий Маяк,Малый Маяк
701611,Matiasa,UA,35.016666,44.833332,Матіаса,Матиаса
700550,Mysove,UA,35.836394,45.447412,Мисове,Мысовое
700180,Mykolayivka,UA,34.933334,45.266666,Миколаївка,Николаевка
701491,Mays’ke,UA,34.566666,45.599998,Майське,Майское
701453,Medvedivka,UA,34.549999,45.883331,Медведівка,Медведевка
701965,Malyy Fontan,UA,30.766666,46.433334,Малий Фонтан,Малый Фонтан
700567,Mykolayivs’ka Oblast’,UA,32,47.25,Миколаївська область,Николаевская область
701579,Matrosskaya Sloboda,UA,36.810036,46.735537,Матроська слобідка,Матросская слободка
701404,Melitopol,UA,35.373055,46.84222,Мелітополь,Мелитополь
701932,Malyy Tokmak,UA,35.716667,47.25,Малий Токмак,Малый Токмак
700871,Mokroye,UA,35.25,47.816666,Мокра,Мокрая
701587,Matveyevka,UA,35.266666,47.883331,Матвіївка,Матвеевка
701216,Mikhaylovka,UA,35.25,47.950001,Михайлівка,Михайловка
701091,Mynay,UA,22.283333,48.583332,Минай,Минай
701405,Meliorativnoye,UA,35.366669,48.599998,Меліоративне,Мелиоративное
6982974,Marta,UA,34.10199,44.686298,Марта,Марта
701347,Merefa,UA,36.051941,49.819721,Мерефа,Мерефа
701196,Mikhaylovka,UA,36.150002,48.799999,Михайлівка,Михайловка
700754,Morozovskiy,UA,35.916672,48.650002,Морозівське,Морозовское
702072,Malokaterynivka,UA,35.253891,47.6525,Малокатеринівка,Малокатериновка
7046808,Moskalenka,UA,34.741928,46.286369,Москаленка,Москаленко
700177,Mykolayivka,UA,34.606361,46.107071,Миколаївка,Николаевка
701922,Mamut,UA,34.428249,45.79575,Мамут,Мамут
701862,Mare,UA,34.292511,45.453239,Маре,Марэ
6980613,Malen’ke,UA,34.002399,45.076889,Маленьке,Маленькое
700835,Molodizhne,UA,34.05006,45.00428,Молодіжне,Молодёжное
6974770,Molochne,UA,34.033039,44.91288,Молочне,Молочное
7040022,Malovydne,UA,33.81052,44.795849,Маловидне,Маловидное
7021078,Male Sadove,UA,33.840729,44.63913,Мале Садове,Малое Садовое
701822,Mariupol,UA,37.5,47.066669,Маріуполь,Мариуполь
701911,Manchzhuriya,UA,32.033329,47.23333,Новоінгулка,Новоингулка
701824,Mariupol,UA,37.533089,47.105701,Маріуполь,Мариуполь
700569,Mykolayiv,UA,31.9974,46.965912,Миколаїв,Николаев
702116,Malyn,UA,29.238331,50.772331,Малин,Малин
701855,Marhanets,UA,34.627689,47.635429,Марганець,Марганец
700568,Mykolayiv,UA,23.98522,49.52372,Миколаїв,Николаев
702337,Makariv,UA,29.811279,50.464081,Макарів,Макаров
701650,Mar’yevka,UA,34.900002,48.883331,Мар'ївка,Марьевка
702320,Makiyivka,UA,37.925758,48.047821,Макіївка,Макеевка
701372,Mena,UA,32.215679,51.521702,Мена,Мена
701031,Myronivka,UA,30.98225,49.660069,Миронівка,Мироновка
700753,Morshin,UA,23.87232,49.156521,Моршин,Моршин
702246,Mala Bilozerka,UA,34.93457,47.247372,Мала Білозерка,Малая Белозёрка
701845,Mar’inka,UA,37.50544,47.945271,Мар’їнка,Марьинка
701075,Myrhorod,UA,33.60886,49.96854,Миргород,Миргород
701305,Mezhova,UA,36.73468,48.253181,Межова,Межевая
702231,Mala Danylivka,UA,36.165642,50.063541,Мала Данилівка,Малая Даниловка
697613,Manhush,UA,37.31068,47.05582,Мангуш,Мангуш
701119,Mikulintsy,UA,25.605181,49.396,Микулинці,Микулинцы
700700,Mospyne,UA,38.06395,47.890808,Моспине,Моспино
701906,Manevichi,UA,25.534361,51.294048,Маневичі,Маневичи
700544,Mytnitsa,UA,30.24029,50.128689,Митниця,Мытница
812935,Molchany,UA,36.300282,49.9202,Мовчани,Молчаны
700646,Mukacheve,UA,22.717791,48.43919,Мукачево,Мукачево
700829,Molodogvardeysk,UA,39.658241,48.345779,Молодогвардійськ,Молодогвардейск
700159,Mykolayivka,UA,30.756149,47.541351,Миколаївка,Николаевка
700606,Murovani Kurylivtsi,UA,27.518921,48.72348,Муровані Курилівці,Мурованые Куриловцы
700607,Murovanoye,UA,22.936701,49.521431,Муроване,Мурованое
700730,Moshny,UA,31.74757,49.514729,Мошни,Мошны
700750,Morskoye,UA,34.803139,44.825932,Морське,Морское
700796,Monastyryshche,UA,29.804701,48.990898,Монастирище,Монастырище
700831,Molodiya,UA,26.021391,48.223259,Молодія,Молодия
700834,Molodizhne,UA,32.660149,48.177319,Молодіжне,Молодёжное
700964,Mlyniv,UA,25.616751,50.508999,Млинів,Млинов
700967,Mleyev,UA,31.533899,49.344341,Мліїв,Млиев
700974,Mizoch,UA,26.15,50.400002,Мізоч,Мизоч
700977,Miusinsk,UA,38.903641,48.077499,Міусинськ,Миусинск
701057,Myrnyy,UA,33.035011,45.30788,Мирний,Мирный
701104,Milove,UA,40.130161,49.378719,Мілове,Меловое
701233,Mykhaylivka,UA,35.222351,47.27235,Михайлівка,Михайловка
701274,Myhove,UA,25.37904,48.15749,Мигове,Мигово
701276,Myhiya,UA,30.95153,48.037189,Мигія,Мигия
701286,Mizhvodne,UA,32.845009,45.587509,Міжводне,Межводное
701413,Melekyne,UA,37.399811,46.959572,Мелекіне,Мелекино
701425,Medzhibozh,UA,27.404869,49.437481,Меджибіж,Меджибож
701466,Medenychi,UA,23.750731,49.43055,Меденичі,Меденичи
701560,Mayaky,UA,29.55986,47.44083,Маяки,Маяки
701588,Matviyivka,UA,35.14444,47.074718,Матвіївка,Матвеевка
701637,Mashivka,UA,34.866879,49.443081,Машівка,Машевка
701768,Marshintsy,UA,26.29133,48.21751,Маршинці,Маршинцы
701792,Markivka,UA,39.570549,49.5229,Марківка,Марковка
701802,Markova,UA,24.41382,48.675758,Маркова,Маркова
701877,Manyava,UA,24.37537,48.655411,Манява,Манява
701912,Manchenky,UA,35.858349,49.97982,Манченки,Манченки
702061,Malorichenske,UA,34.557892,44.758881,Малоріченське,Малореченское
702073,Malokakhovka,UA,33.447899,46.781422,Малокаховка,Малокаховка
702147,Mala Vyska,UA,31.63657,48.643082,Мала Виска,Малая Виска
702153,Mala Tokmachka,UA,35.892929,47.535629,Мала Токмачка,Малая Токмачка
702356,Mahdalynivka,UA,34.915581,48.921021,Магдалинівка,Магдалиновка
793657,Malynivka,UA,36.73333,49.816669,Малинівка,Малиновка
701032,Mironovka,UA,36.12899,49.270489,Миронівка,Мироновка
690679,Nyzhni Petrivtsi,UA,25.72327,48.028469,Нижні Петрівці,Нижние Петровцы
699996,Nizhniy Airgul’,UA,33.950001,44.599998,Нижній Аїргул,Нижний Аиргул
699318,Novopillya,UA,33.916668,44.583332,Новопілля,Новополье
699072,Novoul’yanovka,UA,33.866669,44.599998,Новоульянівка,Новоульяновка
700416,Nauchnyy,UA,34.016666,44.733334,Научний,Научный
700072,Nikol’skaya,UA,30.583332,50.450001,Нікольська,Никольская
699317,Novo-Poznyaki,UA,30.633333,50.416668,Ново-Позняки,Ново-Позняки
699871,Novaya Darnitsa,UA,30.65,50.433334,Нова Дарниця,Новая Дарница
700396,Nebilitsa,UA,29.6,50.416668,Небелиця,Небелица
711527,Nikita,UA,34.233334,44.533333,Нікіта,Никита
699992,Nizhniy Chorgun’,UA,33.683334,44.533333,Нижній Чоргун,Нижний Чоргун
698866,Novyi Svit,UA,34.900002,44.816666,Новий Світ,Новый Свет
796898,Novyy Koyash,UA,36.228611,45.045555,Новий Кояш,Новый Кояш
700432,Nasypne,UA,35.283333,45.049999,Насипне,Насыпное
699550,Novoivanivka,UA,34.799999,45.450001,Новоіванівка,Новоивановка
699706,Novooleksiyivka,UA,34.642776,46.226944,Новоолексіївка,Новоалексеевка
699100,Novotroyitske,UA,34.332779,46.351112,Новотроїцьке,Новотроицкое
699657,Novobohdanivka,UA,35.327221,47.081944,Новобогданівка,Новобогдановка
699573,Novo-Grigor’yevka,UA,30.316668,47.549999,Новогригорівка,Новогригоровка
700151,Nikolayevka,UA,35.200001,47.783333,Миколаївка,Николаевка
700022,Nizhnedneprovsk,UA,35.066666,48.5,Нижньоднiпровськ,Нижнеднепровск
699445,Novomoskovsk,UA,35.200001,48.616669,Новомосковськ,Новомосковск
812803,Nadtochiv,UA,36.080132,49.968392,Надточії,Надточии
699406,Novo-Nikolayevka,UA,36.275002,49.33028,Паризьке,Парижское
808841,Novo Ivanovka,UA,36.340832,49.084438,Ново-Іванівка,Ново-Ивановка
700272,Nestileyevka,UA,36.25,48.849998,Нестеліївка,Нестелиевка
699718,Novo-Aleksandrovka,UA,36.200001,48.799999,Новоолександрівка,Новоалександровка
699562,Novo-Grigor’yevka,UA,36.116669,48.73333,Новогригорівка,Новогригоровка
699967,Nizhnyanka,UA,35.916672,48.666672,Нижнянка,Нижнянка
700201,Nikiforovskiy,UA,35.366669,47.916672,Українка,Украинка
699606,Novofëdorovka,UA,35.316669,47.083328,Новофедорівка,Новофёдоровка
7048362,Novoyefremivka,UA,34.93766,46.478409,Новоєфремівка,Новоефремовка
7046674,Novyy Trud,UA,34.551159,46.07766,Новий Труд,Новый Труд
6981130,Novoandriyivka,UA,34.075611,45.21973,Новоандріївка,Новоандреевка
698873,Novyy Sarabuz,UA,34.033329,45.049999,Укромне,Укромное
700490,Nagornoye,UA,33.799999,44.799999,Нагірне,Нагорное
7021112,Nyzhnya Holubynka,UA,33.911209,44.598068,Нижня Голубинка,Нижняя Голубинка
699989,Nizhniye Partizany,UA,34.083328,44.833328,Партизанське,Партизанское
699677,Novoaydar,UA,39.005829,48.963909,Новоайдар,Новоайдар
700019,Nyzhnohirskyy,UA,34.738392,45.447891,Нижньогірський,Нижнегорский
700051,Nikopol,UA,34.39637,47.57119,Нікополь,Никополь
699942,Nizhyn,UA,31.886881,51.048012,Ніжин,Нежин
700261,Netishyn,UA,26.64171,50.340038,Нетішин,Нетешин
700322,Nemyriv,UA,28.83779,48.97076,Немирів,Немиров
700500,Nadychi,UA,24.098597,49.976121,Надичі,Надычи
700507,Nadvirna,UA,24.569361,48.6348,Надвірна,Надворная
698949,Novyy Chudnov,UA,28.116671,50.049999,Новий Чуднів,Новый Чуднов
700079,Nikolaypol’ye,UA,37.558739,48.526958,Миколайпілля,Николайполье
699986,Nyzhni Sirohozy,UA,34.38044,46.848419,Нижні Сірогози,Нижние Серогозы
699329,Novopokrovka,UA,34.60619,48.059181,Новопокровка,Новопокровка
829788,Narkevychi,UA,26.641781,49.51717,Наркевичі,Наркевичи
699034,Novovorontsovka,UA,33.91748,47.500351,Нововоронцовка,Нововоронцовка
699035,Novovolynsk,UA,24.162649,50.725761,Нововолинськ,Нововолынск
700446,Narodychi,UA,29.082279,51.202862,Народичі,Народичи
699403,Novo-Nikolayevskiy,UA,37.316669,48.25,Ново-Миколаївський,Ново-Николаевский
699675,Novoazovsk,UA,38.085991,47.113892,Новоазовськ,Новоазовск
699066,Novo-Uspenka,UA,39.216671,48.400002,Ново-Успенка,Ново-Успенка
699761,Nove-Misto,UA,29.828131,48.981129,Нове Місто,Новое Мисто
699453,Novomyrhorod,UA,31.64204,48.781052,Новомиргород,Новомиргород
699557,Novogrodovka,UA,37.34153,48.202671,Новогродівка,Новогродовка
699311,Novopskov,UA,39.08987,49.546398,Новопсков,Новопсков
699777,Nova Vodolaha,UA,35.870781,49.718498,Нова Водолага,Новая Водолага
700273,Nestervarka,UA,28.86113,48.689751,Нестерварка,Нестерварка
699917,Nosivka,UA,31.582821,50.931519,Носівка,Носовка
699553,Novohrad-Volynskyy,UA,27.616501,50.59412,Новоград-Волинський,Новоград-Волынский
699680,Novoarkhanhelsk,UA,30.818211,48.658031,Новоархангельськ,Новоархангельск
698953,Novyy Buh,UA,32.521599,47.693081,Новий Буг,Новый Буг
699078,Novoukrayinka,UA,31.528521,48.326351,Новоукраїнка,Новоукраинка
699839,Nova Kakhovka,UA,33.34864,46.754509,Нова Каховка,Новая Каховка
698840,Nuyno,UA,24.910179,51.54628,Нуйно,Нуйно
698852,Novyy Yarychiv,UA,24.305229,49.904442,Новий Яричів,Новый Ярычев
698861,Novyy Svit,UA,38.021118,47.805908,Новий Світ,Новый Свет
698865,Novyy Svit,UA,36.297371,45.477539,Новий Світ,Новый Свет
698869,Novyy Starodub,UA,33.17329,48.5158,Новий Стародуб,Новый Стародуб
698921,Novi Troyany,UA,28.856279,45.942749,Нові Трояни,Новые Трояны
698927,Novi Sanzhary,UA,34.310841,49.343948,Нові Санжари,Новые Санжары
698943,Novi Bilokorovychi,UA,28.05463,51.115479,Нові Білокоровичі,Новые Белокоровичи
699015,Nove Davydkovo,UA,22.621639,48.44133,Нове Давидково,Новое Давыдково
699061,Novovasylivka,UA,35.75362,46.831501,Нововасилівка,Нововасилевка
699272,Novoselitsa,UA,27.51955,50.070301,Новоселиця,Новоселица
699285,Novoselytsya,UA,26.26531,48.219311,Новоселиця,Новоселица
699328,Novopokrovka,UA,36.547729,49.842522,Новопокровка,Новопокровка
699410,Novonikolayevka,UA,34.373989,48.556252,Новомиколаївка,Новониколаевка
699413,Novomykolayivka,UA,35.910198,47.9781,Новомиколаївка,Новониколаевка
699607,Novofedorovka,UA,32.31781,46.17128,Новофедорівка,Новофёдоровка
699746,Novytsya,UA,24.335421,48.963451,Новиця,Новица
699753,Novhorod-Siverskyy,UA,33.261501,52.005772,Новгород-Сіверський,Новгород-Северский
699756,Novhorodka,UA,32.657848,48.365059,Новгородка,Новгородка
699802,Nova Praha,UA,32.902729,48.568211,Нова Прага,Новая Прага
699811,Nova Odesa,UA,31.785061,47.307781,Нова Одеса,Новая Одесса
699823,Nova Mayachka,UA,33.22707,46.59996,Нова Маячка,Новая Маячка
699882,Nova Borova,UA,28.63446,50.692959,Нова Борова,Новая Боровая
699899,Nova Ushytsya,UA,27.27434,48.837158,Нова Ушиця,Новая Ушица
699933,Nyzy,UA,34.784409,50.78281,Низи,Низы
699956,Nizhnyaya Krynka,UA,38.160641,48.113499,Нижня Кринка,Нижняя Крынка
699963,Nyzhnya Duvanka,UA,38.17429,49.584641,Нижня Дуванка,Нижняя Дуванка
700295,Neresnytsya,UA,23.765881,48.118141,Нересниця,Нересница
700341,Nelipyno,UA,23.03146,48.561008,Неліпино,Нелепино
700371,Nedryhayliv,UA,33.876259,50.833981,Недригайлів,Недригайлов
700391,Nebyliv,UA,24.21657,48.815262,Небилів,Небылов
700410,Navariya,UA,23.92746,49.749519,Наварія,Навария
8224454,Novyi Svit,UA,34.91301,44.82988,Новий Світ,Новый Свет
461727,Olenevka,UA,32.533329,45.383331,Оленівка,Оленевка
698283,Osokorki,UA,30.6,50.400002,Осокорки,Осокорки
698466,Opolzneve,UA,33.933334,44.400002,Оползневе,Оползневое
698159,Otradnoye,UA,34.219451,44.50881,Відрадне,Отрадное
698391,Orlyne,UA,33.766666,44.450001,Орлине,Орлиное
698351,Ortay,UA,35.150002,45.183334,Фрунзево,Фрунзево
698738,Odes’ka Oblast’,UA,30,47,Одеська область,Одесская область
698740,Odesa,UA,30.732622,46.477474,Одеса,Одесса
698362,Orlovshchina,UA,35.333332,48.633331,Орлівщина,Орловщина
698542,Ol’khovtsy,UA,26.516666,48.650002,Вільховець,Ольховец
808832,Otdokhnina,UA,36.323059,49.061668,Оддихне,Отдыхное
698410,Orekhovskiy,UA,35.316669,47.333328,Петрівка,Петровка
691842,Ostrovs’ke,UA,34.421612,45.769058,Островське,Островское
698652,Oktyabrs’ke,UA,34.126678,45.292839,Октябрське,Октябрьское
698166,Otesh-Eli,UA,33.76667,44.833328,Отеш-Елі,Отеш-Эли
7019825,Oktyabrs’kyy,UA,33.604359,44.592049,Октябрський,Октябрьский
698138,Ovidiopol,UA,30.441271,46.249981,Овідіополь,Овидиополь
698782,Obukhiv,UA,30.622721,50.10997,Обухів,Обухов
698247,Oster,UA,30.88229,50.9506,Остер,Остёр
698436,Pokrov,UA,34.05957,47.667622,Покров,Покров
698770,Ochakiv,UA,31.54982,46.612831,Очаків,Очаков
698232,Ostroh,UA,26.51425,50.329418,Острог,Острог
698597,Olevsk,UA,27.652281,51.224819,Олевськ,Олевск
698625,Oleksandriya,UA,33.115929,48.669609,Олександрія,Александрия
698627,Oleksandrivka,UA,32.234921,48.96336,Олександрівка,Александровка
713749,Okhtyrka,UA,34.898788,50.31036,Охтирка,Ахтырка
698450,Orativ,UA,29.52697,49.188889,Оратів,Оратов
698598,Olesko,UA,24.89336,49.96233,Олесько,Олеско
713683,Oleksandrivka,UA,30.634809,46.32893,Олександрівка,Александровка
698131,Ovruch,UA,28.803511,51.3246,Овруч,Овруч
698459,Opryshovtse,UA,24.712179,48.880901,Опришівці,Опришевцы
698428,Orikhiv,UA,35.785751,47.56731,Оріхів,Орехов
698102,Ozerne,UA,28.733841,50.178162,Озерне,Озёрное
698107,Ozerne,UA,28.675461,45.403,Озерне,Озёрное
698110,Ozerna,UA,25.328951,49.62891,Озерна,Озёрная
698142,Otyniya,UA,24.861111,48.737671,Отинія,Отыния
698316,Osypenko,UA,36.825298,46.913601,Осипенко,Осипенко
698346,Orzhytsya,UA,32.701221,49.791821,Оржиця,Оржица
698438,Ordzhonikidze,UA,35.353746,44.967379,Орджонікідзе,Орджоникидзе
698462,Oposhnya,UA,34.612259,49.95652,Опішня,Опошня
698479,Onufriyivka,UA,33.448689,48.907162,Онуфріївка,Онуфриевка
698502,Olyka,UA,25.81251,50.718552,Олика,Олыка
698510,Olshanskoye,UA,31.793751,47.184109,Ольшанське,Ольшанское
698570,Olishevka,UA,31.333139,51.22266,Олишівка,Олишевка
698790,Obroshyne,UA,23.866671,49.783329,Оброшине,Оброшино
698807,Obodivka,UA,29.247749,48.40514,Ободівка,Ободовка
698825,Obertyn,UA,25.17012,48.700321,Обертин,Обертин
832394,Orikhove,UA,33.631802,45.12944,Оріхове,Орехово
6931023,Orzhiv,UA,26.115875,50.754486,Оржів,Оржев
697959,Partyzans’ke,UA,34.083332,44.833332,Партизанське,Партизанское
696234,Privol’noye,UA,34.333332,44.783333,Привільне,Привольное
696877,Podol,UA,30.516666,50.466667,Поділ,Подол
697960,Partizanskoye,UA,34,44.75,Партизанське,Партизанское
696050,Pushcha-Voditsa,UA,30.5,50.450001,Пуща-Водиця,Пуща-Водица
696359,Predmostnaya,UA,30.583332,50.433334,Передмостова слобідка,Предмостная слободка
697652,Perevalivka,UA,34.983334,44.966667,Перевалівка,Переваловка
697811,Pcholyne,UA,34.549999,44.933334,Пчолине,Пчелиное
696377,Poznyaki,UA,30.616667,50.400002,Позняки,Позняки
697418,Petropavlovskaya Borshchagovka,UA,30.333332,50.433334,Петропавлівська Борщагівка,Петропавловская Борщаговка
696961,Pidhirne,UA,33.816666,44.450001,Підгірне,Подгорное
696310,Prigorodnoye,UA,33.599998,44.516666,Пригородне,Пригородное
697653,Perevalnoe,UA,34.333332,44.833332,Перевальне,Перевальное
696309,Prigorodnoye,UA,34.150002,44.950001,Пригородне,Пригородное
697114,Plavni,UA,35.900002,45.383331,Плавні,Плавни
696471,Portove,UA,33.483334,45.849998,Портове,Портовое
709075,Partenit,UA,34.344635,44.577995,Партеніт,Партенит
696945,Pidhorodne,UA,33.866669,44.766666,Підгородне,Подгородное
697530,Pishchane,UA,33.599998,44.849998,Піщане,Песчаное
697624,Perove,UA,34.066666,44.933334,Перове,Перово
696313,Prydorozhnye,UA,34.450001,45.799999,Придорожнє,Придорожное
697957,Partyzany,UA,34.750278,46.33139,Рикове,Рыково
696740,Pokrovka,UA,31.700001,46.483334,Покровка,Покровка
696722,Pokrovs’ke,UA,31.633333,46.533333,Покровське,Покровское
696010,Putilovka,UA,37.75,48.033333,Путилівка,Путиловка
697859,Pavlovka,UA,35.349998,48.233334,Павлівка,Павловка
696317,Pridneprovsk,UA,35.116669,48.400002,Придніпровськ,Приднепровск
697536,Peschanka,UA,35.299999,48.599998,Піщанка,Песчанка
696071,Pudlovtsy,UA,26.549999,48.716667,Пудлівці,Пудловцы
696743,Pokotylivka,UA,36.177219,49.915279,Покотилівка,Покотиловка
697488,Pesochin,UA,36.101391,49.956669,Пісочин,Песочин
697135,Pivdenne,UA,36.07,49.88139,Південне,Южный
808926,Privol’ye,UA,36.346939,49.107498,Привілля,Приволье
696628,Poltavskoye,UA,36.263123,49.010796,Полтавське,Полтавское
698003,Panyutyne,UA,36.283329,48.933331,Панютине,Панютино
696278,Prymors’ke,UA,35.285,47.617779,Приморське,Приморское
696262,Pryshyb,UA,35.322781,47.260281,Пришиб,Пришиб
697244,Pikalovka,UA,35,46.533329,Пикалівка,Пикаловка
691160,Pushkine,UA,34.30534,45.538559,Пушкіне,Пушкино
7018275,Poltavka,UA,34.18388,45.351109,Полтавка,Полтавка
6974516,Pryyatne Svidannya,UA,34.00095,44.850368,Приятне Свідання,Приятное Свидание
696999,Poshtove,UA,33.95446,44.831108,Поштове,Почтовое
7040140,Pyrohivka,UA,33.725811,44.68391,Пироговка,Пироговка
697889,Pavlohrad,UA,35.866669,48.51667,Павлоград,Павлоград
696240,Pryvitne,UA,34.679031,44.817371,Привітне,Приветное
7021056,Pavlivka,UA,33.77359,44.450031,Павлівка,Павловка
696677,Polohy,UA,36.253609,47.48444,Пологи,Пологи
696634,Poltavs’ka Oblast’,UA,34,49.5,Полтавська область,Полтавская область
697107,Plenenfel’d,UA,35.566669,47.51667,Плененфельд,Плененфельд
697628,Perkovtsy,UA,26.65056,48.447472,Перківці,Перковцы
696643,Poltava,UA,34.54073,49.593731,Полтава,Полтава
697994,Paraskoveyevka,UA,38.002048,48.66296,Парасковіївка,Парасковиевка
696660,Polonne,UA,27.51087,50.124241,Полонне,Полонное
696943,Pidhorodne,UA,35.1068,48.575279,Підгородне,Подгородное
697692,Peremyshlyany,UA,24.55846,49.66523,Перемишляни,Перемышляны
696280,Primorskoye,UA,37.692661,47.174358,Сартана,Сартана
696032,Pustomyty,UA,23.912951,49.715321,Пустомити,Пустомыты
697593,Pervomaysk,UA,30.850731,48.044331,Первомайськ,Первомайск
696292,Prymorsk,UA,36.34425,46.734791,Приморськ,Приморск
696108,Pryluky,UA,32.387611,50.593239,Прилуки,Прилуки
697650,Perevalsk,UA,38.843842,48.43779,Перевальськ,Перевальск
697979,Parizhskaya Kommuna,UA,38.816669,48.433331,Паризька Комуна,Парижская Коммуна
696542,Popova,UA,33.833328,51.200001,Буринь,Бурынь
697637,Pereyaslav-Khmelnytskyy,UA,31.4795,50.087681,Переяслав-Хмельницький,Переяслав-Хмельницкий
696823,Pidvolochys’k,UA,26.145849,49.534721,Підволочиськ,Подволочиск
696008,Putyvl,UA,33.870659,51.337448,Путивль,Путивль
697750,Perechyn,UA,22.466669,48.73333,Перечин,Перечин
696332,Pryazovs’ke,UA,35.642509,46.734261,Приазовське,Приазовское
698006,Panteleymonovka,UA,37.974281,48.201809,Пантелеймонівка,Пантелеймоновка
697196,Pirogovichi,UA,29.97946,50.986778,Пироговичі,Пироговичи
697576,Pervomays’kyy,UA,36.21471,49.387421,Первомайський,Первомайский
697276,Petrovskoye,UA,38.878922,48.296619,Петровське,Петровское
697592,Pervomaysk,UA,38.548061,48.629879,Первомайськ,Первомайск
696136,Protsevka,UA,33.471161,50.768452,Процівка,Процевка
695965,Piatykhatky,UA,33.71056,48.41333,П'ятихатки,Пятихатки
696566,Popasnaya,UA,38.37804,48.633282,Попасна,Попасная
697183,Pyryatyn,UA,32.510731,50.244499,Пирятин,Пирятин
696127,Prudyanka,UA,36.16835,50.236061,Прудянка,Прудянка
696204,Pryyutivka,UA,33.070782,48.72094,Приютівка,Приютовка
696218,Pryvillya,UA,38.304581,49.015011,Привілля,Приволье
696275,Pryozerne,UA,36.33025,45.26976,Приозерне,Приозёрное
696302,Prikolotnoye,UA,37.347439,50.160419,Приколотне,Приколотное
696348,Preobrazhenka,UA,35.816669,47.571941,Преображенка,Преображенка
696478,Poroshkovo,UA,22.753281,48.66832,Порошково,Порошково
696483,Porohy,UA,24.26322,48.68755,Пороги,Пороги
696557,Popilnya,UA,29.443529,49.966518,Попільня,Попельня
696576,Poninka,UA,27.536289,50.184921,Понінка,Понинка
696581,Pomichna,UA,31.415831,48.242222,Помічна,Помошная
696582,Pomoryany,UA,24.9307,49.640919,Поморяни,Поморяны
696602,Polyanka,UA,27.688089,50.258362,Полянка,Полянка
696771,Pohrebyshche,UA,29.263611,49.486389,Погребище,Погребище
696824,Pidvynohradiv,UA,22.971939,48.139469,Підвиноградів,Подвиноградов
696938,Podgortsy,UA,24.9795,49.946121,Підгірці,Подгорцы
696948,Pidhorodna,UA,30.88953,48.10704,Підгородна,Подгородная
696966,Pidhaytsi,UA,25.13341,49.268539,Підгайці,Подгайцы
696989,Podbuzh,UA,23.248871,49.334831,Підбуж,Подбуж
697006,Pochayiv,UA,25.511829,50.005081,Почаїв,Почаев
697018,Pobugskoye,UA,30.592739,48.165791,Побузьке,Побугское
697038,Pniv,UA,24.528721,48.617828,Пнів,Пнев
697126,Plakhtiyivka,UA,29.721689,46.100601,Плахтіївка,Плахтиевка
697230,Pylypets,UA,23.35191,48.667679,Пилипець,Пилипец
697325,Petrove,UA,33.256168,48.324669,Петрове,Петрово
697423,Petropavlivka,UA,36.436699,48.456429,Петропавлівка,Петропавловка
697450,Petrivka,UA,30.959141,46.969509,Петрівка,Петровка
697455,Petrykivka,UA,34.635132,48.729778,Петриківка,Петриковка
697457,Petrikov,UA,25.57901,49.531219,Петриків,Петриков
697473,Petranka,UA,24.303471,48.902458,Петранка,Петранка
697489,Piskivka,UA,29.619341,50.693779,Пісківка,Песковка
697543,Peschana,UA,29.73086,48.129181,Піщана,Песчаная
697568,Pervomayske,UA,33.855961,45.717442,Первомайське,Первомайское
697608,Pershotravneve,UA,28.86837,51.392872,Першотравневе,Першотравневое
697676,Peresichna,UA,35.98259,50.024132,Пересічне,Пересечное
697739,Perehonivka,UA,30.51923,48.535519,Перегонівка,Перегоновка
697802,Pechenizhyn,UA,24.89423,48.515511,Печеніжин,Печенежин
697817,Pavlysh,UA,33.356911,48.917622,Павлиш,Павлыш
697839,Pavlivka,UA,38.709171,49.608639,Павлівка,Павловка
697841,Pavlovka,UA,28.45956,49.441429,Павлівка,Павловка
697945,Pasichna,UA,24.430031,48.571522,Пасічна,Пасечная
697953,Parutyne,UA,31.897091,46.705379,Парутине,Парутино
698008,Pantayivka,UA,32.884102,48.674,Пантаївка,Пантаевка
696416,Potok,UA,25.03334,49.512241,Потік,Поток
695305,Rozovka,UA,35.316669,47.216671,Розівка,Розовка
695394,Rosvigovo,UA,22.701941,48.451172,Росвигово,Росвигово
695572,Rodnykivs’ke,UA,33.849998,44.466667,Родниківське,Родниковское
695947,Rabochiy Ugolok,UA,34.400002,44.650002,Робочий куток,Рабочий уголок
695646,Rezervne,UA,33.666668,44.466667,Резервне,Резервное
695347,Rozy Lyuksemburh,UA,34.883331,46.400002,Херсонське,Херсонское
695641,Reshetilovskiy Kut,UA,35.283333,48.666668,Решетилівський Кут,Решетиловский Кут
695570,Rodomyslovka,UA,36.284721,49.293331,Радомислівка,Радомысловка
690029,Rozivka,UA,34.960609,46.507191,Розівка,Розовка
7046809,Rivne,UA,34.757729,46.360168,Рівне,Ровное
6987036,Rozovyy,UA,34.318111,44.695549,Розовий,Розовый
695053,Rybache,UA,34.592991,44.772388,Рибаче,Рыбачье
695592,Rivnens’ka Oblast’,UA,26.5,51,Рівненська область,Ровненская область
695594,Rivne,UA,26.22743,50.623081,Рівне,Ровно
694992,Rzhyshchiv,UA,31.04628,49.968861,Ржищів,Ржищев
695326,Rozhyshche,UA,25.26906,50.915421,Рожище,Рожище
695209,Rudniki,UA,23.15502,49.802639,Рудники,Рудники
695464,Romny,UA,33.474709,50.751041,Ромни,Ромны
695912,Radomyshl,UA,29.229111,50.496132,Радомишль,Радомышль
695344,Rozdilna,UA,30.079189,46.843342,Роздільна,Раздельная
695670,Reni,UA,28.293171,45.457272,Рені,Рени
695274,Rubizhne,UA,38.379669,49.012291,Рубіжне,Рубежное
695859,Rakhiv,UA,24.20089,48.052601,Рахів,Рахов
710565,Radyvyliv,UA,25.25576,50.12994,Радивилів,Радивилов
695379,Rovenki,UA,39.37764,48.083321,Ровеньки,Ровеньки
695643,Reshetylivka,UA,34.078152,49.56501,Решетилівка,Решетиловка
695516,Rokytne,UA,27.214001,51.279598,Рокитне,Рокитное
695579,Rodionovka,UA,33.231941,47.996239,Радіонівка,Радионовка
695026,Rykhtichi,UA,23.55662,49.385109,Рихтичі,Рыхтичи
695052,Rybakivka,UA,31.349951,46.617119,Рибаківка,Рыбаковка
695082,Ruzhyn,UA,29.20455,49.722801,Ружин,Ружин
695104,Russkaya Polyana,UA,31.92009,49.417,Руська Поляна,Русская Поляна
695205,Rudne,UA,23.9,49.833328,Рудне,Рудно
695221,Rudki,UA,23.48702,49.653061,Рудки,Рудки
695298,Rozvadov,UA,23.616671,49.5,Розвадів,Розвадов
695307,Rozivka,UA,35.772388,46.938461,Розівка,Розовка
695315,Rozhnyativ,UA,24.16379,48.93576,Рожнятів,Рожнятов
695320,Rozhniv,UA,25.2258,48.365971,Рожнів,Рожнов
695342,Rozdo,UA,24.0623,49.461441,Розділ,Роздол
695365,Rivne,UA,31.75432,48.247421,Рівне,Ровное
695439,Roskoshnyy,UA,30.18471,49.370869,Розкішна,Роскошная
695441,Roskoshnoye,UA,39.300362,48.507431,Розкішне,Роскошное
695459,Ropcha,UA,25.77421,48.119881,Ропча,Ропча
695463,Romodan,UA,33.331779,49.989761,Ромодан,Ромодан
695515,Rokosovo,UA,23.176241,48.210178,Рокосово,Рокосово
695559,Rogatin,UA,24.609261,49.409,Рогатин,Рогатин
695574,Rodnykove,UA,33.954071,45.042961,Родникове,Родниково
695581,Rodinskoye,UA,37.20602,48.35199,Родинське,Родинское
695653,Ripky,UA,31.08383,51.801048,Ріпки,Репки
695699,Rechka,UA,24.9333,48.280338,Річка,Речка
695740,Rozdolne,UA,33.48777,45.770828,Роздольне,Раздольное
695789,Ratne,UA,24.5303,51.668301,Ратне,Ратно
695798,Rassypnoye,UA,38.57618,48.149658,Розсипне,Рассыпное
695821,Ralevka,UA,23.24058,49.50053,Ралівка,Ралевка
695826,Rakiv Lis,UA,24.924271,51.621738,Раків Ліс,Раков Лес
695844,Rakoshyno,UA,22.59687,48.467129,Ракошино,Ракошино
695937,Radcha,UA,24.65502,48.850231,Радча,Радча
692248,Sukhoivanovskoye,UA,35.366669,47.583332,Степногірськ,Степногорск
6723018,Shatylivka,UA,36.233105,50.019814,Шатилівка,Шатиловка
616196,Staryy Dobrotvor,UA,24.377001,50.231541,Старий Добротвір,Старый Добротвор
692410,Strohonivka,UA,34.197269,44.943089,Строгонівка,Строгоновка
692468,Stozhkovskoye,UA,38.4925,48.113331,Стіжківське,Стожковское
692604,Stepanivka,UA,29.986839,46.794891,Степанівка,Степановка
693002,Serednye,UA,22.50696,48.540428,Середнє,Среднее
703863,Sanatoriy Kryms’ke Prymor”ya,UA,35.190475,44.911317,Кримське Примор'є,Крымское Приморье
815919,Sorokin,UA,34.036667,52.15778,Прогрес,Прогресс
693272,Sokolyne,UA,33.966667,44.549999,Соколине,Соколиное
692800,Starosel’ye,UA,33.916668,44.75,Старосілля,Староселье
694320,Shchebetovka,UA,35.150002,44.933334,Щебетовка,Щебетовка
694385,Shakh-Murza Staraya,UA,35.016666,44.983334,Шах-Мурза Стара,Шах-Мурза Старая
692196,Sums’ka Oblast’,UA,34,51,Сумська область,Сумская область
692672,Stavyshche,UA,29.533333,50.400002,Ставище,Ставище
693738,Sitnyaki,UA,29.700001,50.416668,Ситняки,Ситняки
692014,Svyatoshino,UA,30.366667,50.450001,Святошине,Святошино
694558,Semypolky,UA,30.933332,50.716667,Семиполки,Семиполки
691991,Syrai,UA,31.049999,50.849998,Сираї,Сыраи
693585,Slavov,UA,28.533333,50.483334,Славів,Славов
693372,Snitovskoye,UA,33.866669,44.416668,Олива,Олива
693056,Sovetskoye,UA,34.166668,44.549999,Совєтське,Советское
694393,Shablykina,UA,33.433334,44.583332,Шабликіна,Шаблыкина
694728,Schastlivoye,UA,34.066666,44.566666,Щасливе,Счастливое
694423,Sevastopol,UA,33.533333,44.599998,Севастополь,Севастополь
694574,Semydvir”ya,UA,34.466667,44.716667,Семидвір'я,Семидворье
693070,Sotera,UA,34.5,44.733334,Сотера,Сотера
693698,Skalyste,UA,33.966667,44.816666,Скалисте,Скалистое
692315,Sudak,UA,34.966667,44.849998,Судак,Судак
693219,Sonyachna Dolyna,UA,35.099998,44.866669,Сонячна Долина,Солнечная Долина
694115,Shevekova,UA,35.200001,44.916668,Шевекова,Шевекова
694910,Saky,UA,33.603058,45.135555,Саки,Саки
694627,Semenivka,UA,35.766666,45.383331,Семенівка,Семёновка
694308,Shchemilovka,UA,33.700001,46.150002,Щемилівка,Щемиловка
712752,Sanatoriy Batylyman,UA,33.6817,44.418985,Санаторій Батилиман,Санаторий Батилиман
692714,Staryy Krym,UA,35.099998,45.033333,Старий Крим,Старый Крым
694554,Semysotka,UA,35.566666,45.233334,Семисотка,Семисотка
692995,Sredniy Fontan,UA,30.755453,46.413911,Середній Фонтан,Средний Фонтан
693080,Sosnovka,UA,35.166668,46.683334,Якимівка,Акимовка
694623,Semenivka,UA,35.413334,46.889999,Семенівка,Семёновка
694240,Shëlokovyy,UA,35.283333,47.900002,Матвіївка,Матвеевка
694117,Shevchenko Vtoroy,UA,35.400002,48.516666,Шевченко другий,Шевченко второй
693250,Sokolovo,UA,35.316666,48.533333,Соколове,Соколово
6722149,Sokol’nyky,UA,36.261181,50.033634,Сокольники,Сокольники
812806,Sinolitsovka,UA,36.042782,49.958889,Синьолицівка,Синолицовка
694246,Shelkovichnoye,UA,34.099998,44.633331,Шовковичне,Шелковичное
6725648,Shevchenka,UA,36.212448,50.36552,Шевченка,Шевченко
693598,Slatino,UA,36.160831,50.224171,Слатине,Слатино
692035,Svobodnaya Zhizn’,UA,35.049999,46.599998,Новоданилівка,Новоданиловка
694568,Semikhatka,UA,35.066669,46.583328,Семихатки,Семихатки
693269,Sokolohirne,UA,34.942539,46.498131,Сокологірне,Сокологорное
7032306,Shchorsivka,UA,34.68531,46.256531,Олексіївка,Алексеевка
7046678,Sal’kove,UA,34.606331,46.175251,Салькове,Сальково
693226,Solone Ozero,UA,34.447819,45.888481,Солоне Озеро,Солёное Озеро
692505,Stovpove,UA,34.467331,45.826759,Стовпове,Столбовое
6981123,Shyroke,UA,34.047321,45.20155,Широке,Широкое
693342,Sofiyivka,UA,34.001209,45.097092,Софіївка,Софиевка
7040016,Samokhvalove,UA,33.922482,44.824558,Самохвалове,Самохвалово
7040142,Semarenka,UA,33.689098,44.700291,Семеренка,Семеренка
692909,Staraya Darnitsa,UA,30.633329,50.433331,Стара Дарниця,Старая Дарница
693805,Simferopol,UA,34.11079,44.957191,Сімферополь,Симферополь
694165,Shevchenko,UA,35,48.5,Шевченко,Шевченко
694197,Shestakovka,UA,31.97595,48.515968,Шостаківка,Шестаковка
693360,Sobatin,UA,22.99712,48.324169,Собатин,Собатин
7040018,Sevastyanivka,UA,33.932999,44.81974,Севастянівка,Севастьяновка
692194,Sumy,UA,34.800289,50.9216,Суми,Сумы
692975,Stakhanov,UA,38.64352,48.56818,Кадіївка,Кадиевка
691999,Syeverodonetsk,UA,38.491661,48.948318,Сєвєродонецьк,Северодонецк
694350,Sharhorod,UA,28.08497,48.73835,Шаргород,Шаргород
693468,Sloviansk,UA,37.616669,48.866669,Слов’янськ,Славянск
693709,Skadovsk,UA,32.91124,46.1161,Скадовськ,Скадовск
693581,Slavuta,UA,26.865061,50.301552,Славута,Славута
694216,Shepetivka,UA,27.06365,50.185452,Шепетівка,Шепетовка
693514,Sloboda Zasluch’,UA,27.216669,49.75,Слобода Заслуш,Слобода Заслуш
693942,Shostka,UA,33.469799,51.862961,Шостка,Шостка
692176,Sursko-Litovskoye,UA,34.93367,48.336658,Сурсько-Литовське,Сурско-Литовское
693301,Sokal,UA,24.282881,50.47438,Сокаль,Сокаль
694792,Sarny,UA,26.60191,51.337952,Сарни,Сарны
693379,Snihurivka,UA,32.805161,47.07579,Снігурівка,Снигирёвка
693231,Solone,UA,34.872082,48.20805,Солоне,Солёное
694864,Sambir,UA,23.197519,49.518299,Самбiр,Самбор
692301,Sudovaya Vishnya,UA,23.372181,49.788921,Судова Вишня,Судовая Вишня
692372,Stryi,UA,23.856091,49.26223,Стрий,Стрый
692632,Stebnik,UA,23.56357,49.294159,Стебник,Стебник
806930,Savkino,UA,34.086109,51.583889,Савкіне,Савкино
693920,Shpola,UA,31.394711,49.00687,Шпола,Шпола
692129,Svalyava,UA,22.995781,48.548531,Свалява,Свалява
692287,Sukharka,UA,29.23333,50.5,Сухарка,Сухарка
693457,Smila,UA,31.88714,49.22242,Сміла,Смела
692487,Storozhynets’,UA,25.72028,48.164299,Сторожинець,Сторожинец
694677,Selidovo,UA,37.30032,48.147079,Селидове,Селидово
693796,Synelnykove,UA,35.517921,48.320438,Синельникове,Синельниково
693705,Skakunka,UA,29.049999,49.23333,Липовець,Липовец
692832,Starobilsk,UA,38.91069,49.27832,Старобільськ,Старобельск
692254,Sukhodol’sk,UA,39.710499,48.35014,Суходільськ,Суходольск
706757,Soledar,UA,38.08902,48.679352,Соледар,Соледар
693615,Skvyra,UA,29.665689,49.73177,Сквира,Сквира
694812,Sarata,UA,29.66567,46.019661,Сарата,Сарата
692105,Sverdlovsk,UA,39.652431,48.089642,Довжанськ,Должанск
692118,Svatove,UA,38.150349,49.41029,Сватове,Сватово
694656,Sel’tse,UA,26.75,51,Березне,Березно
810784,Slavyanoserbsk,UA,38.908329,48.549171,Слов'яносербськ,Славяносербск
693809,Simeiz,UA,34.007038,44.40646,Сімеїз,Симеиз
692146,Sutysky,UA,28.41732,49.04245,Сутиски,Сутиски
694745,Savran,UA,30.08247,48.132191,Саврань,Саврань
693381,Snizhne,UA,38.772251,48.026119,Сніжне,Снежное
692786,Staroverovka,UA,35.696651,49.54361,Старовірівка,Староверовка
693365,Snyatyn,UA,25.56937,48.446918,Снятин,Снятын
694603,Semenivka,UA,33.180489,49.590309,Семенівка,Семёновка
692702,Staryy Sambor,UA,23.000561,49.43856,Старий Самбір,Старый Самбор
6930327,Slavutich,UA,30.734341,51.519642,Славутич,Славутич
694333,Shatsk,UA,23.938061,51.502079,Шацьк,Шацк
693284,Sokyryany,UA,27.41678,48.447472,Сокиряни,Сокиряны
692856,Stara Vyzhivka,UA,24.43997,51.437618,Стара Вижівка,Старая Выжевка
692210,Sukhyy Lyman,UA,30.6458,46.392132,Сухий Лиман,Сухой Лиман
693665,Sknyliv,UA,23.950001,49.799999,Скнилів,Скнилов
694817,Sarabuz Russkiy,UA,33.98333,45.049999,Солов'ївка,Соловьёвка
693960,Shmidta,UA,39.386108,48.399719,Переможне,Переможное
692087,Svitlovodsk,UA,33.241058,49.048939,Світловодськ,Светловодск
692818,Starokostyantyniv,UA,27.203421,49.757641,Старокостянтинів,Староконстантинов
694382,Shakhtersk,UA,38.516651,48.062519,Шахтарськ,Шахтёрск
692016,Svyatogorsk,UA,37.566669,49.033329,Святогірськ,Святогорск
692039,Svityaz,UA,23.859039,51.482109,Світязь,Свитязь
692122,Svarychiv,UA,24.196581,48.9622,Сваричів,Сварычев
692175,Sursko-Mikhaylovka,UA,34.727589,48.272018,Сурсько-Михайлівка,Сурско-Михайловка
692233,Sukhovolya,UA,23.8377,49.824261,Суховоля,Суховоля
692317,Subottsi,UA,32.520931,48.655449,Суботці,Субботцы
692352,Studenok,UA,37.486969,49.091068,Студенок,Студенок
692465,Strabychovo,UA,22.543079,48.392471,Страбичово,Страбичово
692531,Stetseva,UA,25.57572,48.527672,Стецева,Стецева
692638,Steblev,UA,31.097639,49.401859,Стеблів,Стеблёв
692703,Staryy Saltov,UA,36.79393,50.08268,Старий Салтів,Старый Салтов
692709,Staryy Merchyk,UA,35.759041,49.981468,Старий Мерчик,Старый Мерчик
692713,Staryy Krym,UA,37.489342,47.161461,Старий Крим,Старый Крым
692742,Stari Kuty,UA,25.17293,48.270931,Старі Кути,Старые Куты
692749,Stari Bohorodchany,UA,24.5243,48.833611,Старі Богородчани,Старые Богородчаны
692819,Starokozache,UA,29.985279,46.337219,Старокозаче,Староказачье
692829,Starobesheve,UA,38.03051,47.750381,Старобешеве,Старобешево
692844,Starychi,UA,23.558479,49.980011,Старичі,Старичи
692866,Stara Synyava,UA,27.619089,49.60318,Стара Синява,Старая Синява
692944,Stanislav,UA,32.14777,46.569092,Станіслав,Станислав
693001,Serednye Vodyane,UA,23.91041,47.98159,Середнє Водяне,Среднее Водяное
693010,Sribne,UA,32.918671,50.663841,Срібне,Сребное
693028,Spasskoye,UA,35.052422,48.659828,Спаське,Спасское
693044,Spas,UA,24.062929,48.889919,Спас,Спас
693100,Sosnytsya,UA,32.499851,51.523869,Сосниця,Сосница
693176,Solotvyno,UA,23.87035,47.946041,Солотвино,Солотвино
693178,Solotvyn,UA,24.422119,48.702122,Солотвин,Солотвин
693193,Solonka,UA,24.010281,49.75621,Солонка,Солонка
693194,Solonytsivka,UA,36.034641,49.996819,Солоницівка,Солоницевка
693325,Sofiyivka,UA,33.874619,48.049271,Софіївка,Софиевка
693348,Sobolivka,UA,28.650961,49.33604,Соболівка,Соболевка
693510,Slobidka,UA,29.346109,47.88694,Слобідка,Слободка
693546,Sloboda,UA,33.606949,51.198059,Слобода,Слобода
693582,Slavske,UA,23.445869,48.84734,Славське,Славское
693658,Skole,UA,23.51346,49.03717,Сколе,Сколе
693679,Skhodnitsa,UA,23.361691,49.201279,Східниця,Сходница
693700,Skalat,UA,25.978689,49.427319,Скалат,Скалат
693789,Synevyrska Polyana,UA,23.6891,48.584839,Синевирська Поляна,Синевирская Поляна
693791,Synevyr,UA,23.62575,48.48745,Синевир,Синевир
693953,Sholokhove,UA,34.031189,47.69453,Шолохове,Шолохово
693995,Shklo,UA,23.544081,49.956749,Шкло,Шкло
694013,Shyshaky,UA,34.011181,49.881748,Шишаки,Шишаки
694016,Shyryayeve,UA,30.196381,47.38052,Ширяєве,Ширяево
694023,Shyroke,UA,38.231602,47.957111,Широке,Широкое
694025,Shyroke,UA,33.257141,47.69173,Широке,Широкое
694073,Shypyntsi,UA,25.746639,48.37677,Шипинці,Шипинцы
694137,Shevchenkove,UA,37.173481,49.69585,Шевченкове,Шевченково
694148,Shevchenkove,UA,32.203869,46.862888,Шевченкове,Шевченково
694152,Shevchenkove,UA,29.33357,45.556042,Шевченкове,Шевченково
694198,Sheshory,UA,24.98329,48.33197,Шешори,Шешоры
694273,Shchors,UA,31.94504,51.818649,Сновськ,Сновск
694290,Shcherbinovka,UA,37.791019,48.39489,Щербинівка,Щербиновка
694369,Shalyhyne,UA,34.12167,51.571678,Шалигине,Шалыгино
694392,Shabo,UA,30.38595,46.132622,Шабо,Шабо
694403,Seversk,UA,38.100071,48.866989,Сіверськ,Северск
694427,Serpneve,UA,29.019581,46.300941,Серпневе,Серпневое
694467,Sergeyevka,UA,30.37682,46.027199,Сергіївка,Сергеевка
694491,Seredyna-Buda,UA,34.036388,52.189018,Середина-Буда,Середина-Буда
694498,Serebriya,UA,27.719231,48.455929,Серебрія,Серебрия
694548,Sencha,UA,33.34602,50.254822,Сенча,Сенча
694579,Semeykino,UA,39.533661,48.326431,Сімейкине,Семейкино
694590,Semenivka,UA,32.581829,52.178268,Семенівка,Семёновка
694691,Selets,UA,24.20462,50.297119,Сілець,Селец
694712,Syedove,UA,38.156021,47.076778,Сєдове,Седово
694715,Sedniv,UA,31.56496,51.644718,Седнів,Седнев
694725,Schastye,UA,39.2323,48.739632,Щастя,Счастье
694752,Savyntsi,UA,37.06266,49.402569,Савинці,Савинцы
694919,Sakhnovshchyna,UA,35.871979,49.151661,Сахновщина,Сахновщина
694934,Sadzhavka,UA,24.7882,48.566029,Саджавка,Саджавка
864933,Smyga,UA,25.765751,50.239101,Смига,Смыга
7039160,Shkilne,UA,33.897369,45.057579,Шкільне,Школьное
7303923,Stepove,UA,30.079189,46.70385,Степове,Степовое
7522123,Scholkine,UA,35.824699,45.427608,Щолкіне,Щёлкино
694342,Sharovechka,UA,26.911131,49.41457,Шаровечка,Шаровечка
693577,Svyatohirs’k,UA,37.567081,49.0382,Святогірськ,Святогорск
690856,Tyuzler,UA,34.083332,44.466667,Високогірне,Высокогорное
690875,Tysmenychany,UA,24.66626,48.771679,Тисменичани,Тысменичаны
690890,Tynnoye,UA,26.18486,50.601452,Тинне,Тынное
690985,Turbiv,UA,28.72117,49.347881,Турбів,Турбов
691019,Tukhlya,UA,23.47303,48.912182,Тухля,Тухля
691051,Tsybulevka,UA,29.10288,48.387192,Цибулівка,Цибулевка
691052,Tsybli,UA,31.562811,49.994839,Циблі,Цибли
691184,Trukhanov Ostrov,UA,30.533333,50.466667,Труханів острів,Труханов остров
691919,Tankove,UA,33.816666,44.650002,Танкове,Танковое
691462,Tole,UA,33.816666,44.716667,Дачне,Дачное
690973,Turhenyevka,UA,33.833332,44.700001,Тургенєвка,Тургеневка
691743,Telichka,UA,30.566668,50.400002,Теличка,Теличка
691606,Terny,UA,33.983334,50.983334,Терни,Терны
706452,Tylove,UA,33.733334,44.433334,Тилове,Тыловое
691634,Ternivka,UA,33.75,44.583332,Тернівка,Терновка
826049,Tsementna Slobidka,UA,36.468056,45.3325,Цементна слобідка,Цементная слободка
691469,Tokmak,UA,35.705833,47.251389,Токмак,Токмак
691630,Ternovka,UA,35.333332,48.116669,Тернівка,Терновка
691649,Ternopil’s’ka Oblast’,UA,25.5,49.5,Тернопільська область,Тернопольская область
7020273,Tymofiyivka,UA,34.360882,45.659939,Тимофіївка,Тимофеевка
691064,Tsvitkove,UA,34.165859,45.31181,Цвіткове,Цветково
7040002,Topoli,UA,33.995129,44.841999,Тополі,Тополи
691679,Terenair,UA,34.26667,44.933331,Теренаїр,Теренаир
6983015,Tretiy Samostriy,UA,36.542801,45.366879,Третій самострій,Третий самострой
691650,Ternopil,UA,25.60556,49.555889,Тернопіль,Тернополь
691255,Trostyanets,UA,34.962978,50.478432,Тростянець,Тростянец
690906,Tyachiv,UA,23.57061,48.011799,Тячів,Тячев
691715,Teofipol’,UA,26.41433,49.838181,Теофіполь,Теофиполь
691705,Teplogorsk,UA,38.591648,48.59877,Ірміно,Ирмино
691959,Taburishche,UA,33.25,49.049999,Світловодськ,Светловодск
691355,Toshkovka,UA,38.579029,48.77914,Тошківка,Тошковка
690960,Turka,UA,23.029671,49.15411,Турка,Турка
691374,Torez,UA,38.596851,48.038761,Торез,Торез
691741,Tel’manove,UA,38.024761,47.409939,Тельманове,Тельманово
691037,Tsyurupynsk,UA,32.718899,46.61842,Олешки,Алёшки
691293,Troyits’ko-Khartsyz’k,UA,38.264118,47.967918,Троїцько-Харцизьк,Троицко-Харцызск
865729,Tavriys’k,UA,33.418411,46.75285,Таврійськ,Таврийск
690873,Tysmenytsya,UA,24.84482,48.902191,Тисмениця,Тысменица
865087,Teplodar,UA,30.325199,46.505852,Теплодар,Теплодар
691803,Tatarbunary,UA,29.614241,45.837311,Татарбунари,Татарбунары
691179,Truskavets,UA,23.50618,49.27837,Трускавець,Трускавец
690963,Turiysk,UA,24.52294,51.086441,Турійськ,Турийск
691497,Tlumach,UA,25.00325,48.864029,Тлумач,Тлумач
691693,Terebovlya,UA,25.70997,49.301868,Теребовля,Теребовля
691628,Ternovka,UA,36.096748,48.519279,Тернівка,Терновка
691435,Tomakivka,UA,34.741371,47.815689,Томаківка,Томаковка
691526,Tymoshivka,UA,35.10881,47.184181,Тимошівка,Тимошовка
691016,Tulchyn,UA,28.846411,48.67448,Тульчин,Тульчин
691097,Tsibulev,UA,29.84726,49.079071,Цибулів,Цибулев
691155,Tsarychanka,UA,34.4786,48.93697,Царичанка,Царичанка
691305,Tripolye,UA,30.78141,50.118019,Трипілля,Триполье
691336,Trebukhiv,UA,30.90304,50.484322,Требухів,Требухов
691444,Tovste,UA,25.72621,48.846619,Товсте,Толстое
691510,Tyshkivka,UA,30.942289,48.496651,Тишківка,Тишковка
691578,Tetiyiv,UA,29.66474,49.376701,Тетіїв,Тетиев
691603,Terpinnya,UA,35.41972,46.969711,Терпіння,Терпенье
691639,Ternuvate,UA,36.127609,47.83049,Тернувате,Терноватое
691708,Teplyk,UA,29.745041,48.665661,Теплик,Теплик
691820,Tarutyne,UA,29.15056,46.185829,Тарутине,Тарутино
691904,Tarashcha,UA,30.49259,49.558319,Тараща,Тараща
691942,Talalayivka,UA,31.920851,50.957829,Талалаївка,Талалаевка
704130,Tatariv,UA,24.57836,48.345581,Татарів,Татаров
865086,Tayirove,UA,30.648911,46.363129,Таїрове,Таирово
690791,Ukraine,UA,32,49,Україна,Украина
505257,Urzuf,UA,37.099609,46.915619,Урзуф,Урзуф
690571,Utkivka,UA,36.075279,49.785831,Утківка,Утковка
690600,Ustynivka,UA,32.536739,47.95507,Устинівка,Устиновка
690673,Uralo-Kavkaz,UA,39.825371,48.295761,Урало-Кавказ,Урало-Кавказ
690745,Ulichnoye,UA,23.65111,49.233849,Уличне,Уличное
690756,Ulanov,UA,28.13298,49.695122,Уланів,Уланов
690804,Uhryniv,UA,24.692921,48.9552,Угринів,Угринов
690814,Ugnev,UA,23.748949,50.368111,Угнів,Угнев
690820,Uhlove,UA,33.604519,44.821461,Углове,Угловое
690647,Ushchel’noye,UA,34.166668,44.516666,Ущельне,Ущельное
704116,Urochyshche Kripke,UA,33.733334,44.616669,Урочишє Кріпке,Урочище Крепкое
690847,Uchkuyeva,UA,33.533333,44.633331,Учкуївка,Учкуевка
690557,Uyutnaya,UA,34.957058,44.844186,Уютне,Уютное
690652,Urus-Khodzha,UA,34.799999,45.016666,Урус-Ходжа,Урус-Ходжа
690556,Uyutne,UA,33.301388,45.199444,Уютне,Уютное
695322,Urochyshche Rozhkova,UA,35.177536,45.532327,Арабатський заказник,Арабатский заказник
690713,Ul’yanovka,UA,30.231667,48.326111,Благовіщенське,Благовещенское
690548,Uzhhorod,UA,22.299999,48.616669,Ужгород,Ужгород
690553,Uzenbash,UA,33.766666,44.549999,Хворостянка,Хворостянка
690777,Ukrainka,UA,35.349998,47.916672,Українка,Украинка
690788,Ukrayinka,UA,34.063461,44.96072,Українка,Украинка
690688,Uman,UA,30.22184,48.748379,Умань,Умань
690773,Ukrainka,UA,30.74612,50.143169,Українка,Украинка
690823,Ugledar,UA,37.250641,47.780312,Вугледар,Угледар
690545,Uzyn,UA,30.414869,49.826191,Узин,Узин
690648,Usatove,UA,30.659599,46.532959,Усатове,Усатово
690822,Uglegorsk,UA,38.274231,48.314739,Вуглегірськ,Углегорск
690629,Uspenka,UA,39.161942,48.390282,Успенка,Успенка
689552,Vinogradnoye,UA,34.099998,44.483334,Виноградне,Виноградное
688717,Vyshkovo,UA,23.421129,48.04911,Вишково,Вышково
688749,Vylok,UA,22.83865,48.10915,Вилок,Вилок
688750,Vylkove,UA,29.585951,45.402142,Вилкове,Вилково
688805,Vvedenka,UA,36.507469,49.824409,Введенка,Введенка
688846,Vradiyivka,UA,30.591949,47.86195,Врадіївка,Врадиевка
688865,Voznesenka,UA,35.464581,46.871651,Вознесенка,Вознесенка
688904,Voykove,UA,36.437241,45.38261,Войкове,Войково
688951,Voskhod,UA,36.414101,45.339199,Восход,Восход
688961,Vorozhba,UA,34.21917,51.17334,Ворожба,Ворожба
689003,Voronovytsya,UA,28.68078,49.109539,Вороновиця,Вороновица
689106,Volovets,UA,23.185101,48.710899,Воловець,Воловец
689144,Voloka,UA,25.93074,48.192249,Волока,Волока
689190,Volnoye,UA,34.813869,47.636459,Вільне,Вольное
689307,Voyinka,UA,33.991379,45.8699,Воїнка,Воинка
689428,Volodymyrets,UA,26.14469,51.421299,Володимирець,Владимирец
689434,Vyzhnytsya,UA,25.194521,48.248009,Вижниця,Вижница
689488,Vyshneve,UA,33.91618,48.436611,Вишневе,Вишнёвое
689531,Vynohradove,UA,32.9398,46.369572,Виноградове,Виноградово
689543,Vynohradivka,UA,28.571381,45.68119,Виноградiвка,Виноградовка
689595,Viline,UA,33.671612,44.8456,Віліне,Вилино
689736,Vesele,UA,34.915039,47.01479,Веселе,Весёлое
689817,Verkhovyna,UA,24.791121,48.155708,Верховина,Верховина
689830,Verkhnyaya Syrovatka,UA,34.958611,50.829021,Верхня Сироватка,Верхняя Сыроватка
689834,Verkhnya Rozhanka,UA,23.51569,48.791851,Верхня Рожанка,Верхняя Рожанка
689857,Verkhnyachka,UA,30.03957,48.828491,Верхнячка,Верхнячка
689860,Verkhniy Yasenov,UA,24.94532,48.16156,Верхній Ясенів,Верхний Ясенов
689868,Verkhniy Rohachyk,UA,34.337971,47.250542,Верхній Рогачик,Верхний Рогачик
689892,Verkhneye Sinevidnoye,UA,23.59099,49.103069,Верхнє Синьовидне,Верхнее Синевидное
689945,Verenchanka,UA,25.745331,48.546532,Веренчанка,Веренчанка
690009,Verbivka,UA,35.533329,49.416672,Вербівка,Вербовка
690032,Vendychany,UA,27.79324,48.611759,Вендичани,Вендичаны
690035,Velykoploske,UA,29.671709,47.012539,Великоплоске,Великоплоское
690038,Velyka Mykhaylivka,UA,29.851391,47.079441,Велика Михайлівка,Великая Михайловка
690132,Velykyy Klyuchiv,UA,24.946779,48.470921,Великий Ключів,Великий Ключев
690147,Velikiye Sorochintsy,UA,33.941441,50.02314,Великі Сорочинці,Великие Сорочинцы
690165,Velyki Kopany,UA,32.974979,46.486839,Великі Копані,Великие Копани
690184,Velikiye Borki,UA,25.75753,49.52364,Великі Бірки,Великие Борки
690193,Velikiy Burluk,UA,37.398708,50.037868,Великий Бурлук,Великий Бурлук
690230,Velyka Pysarivka,UA,35.48502,50.425869,Велика Писарівка,Великая Писаревка
690285,Velyka Bahachka,UA,33.72258,49.791161,Велика Багачка,Великая Багачка
690428,Vashkivtsi,UA,25.510229,48.384918,Вашківці,Вашковцы
690434,Vary,UA,22.712811,48.12207,Вари,Вары
690485,Vapnyarka,UA,28.74358,48.53479,Вапнярка,Вапнярка
690017,Verbany,UA,30.01667,47,Мигаї,Мигаи
711743,Velyke Sadove,UA,33.833332,44.633331,Велике Садове,Большое Садовое
689037,Vorokhta,UA,24.571943,48.286945,Ворохта,Ворохта
688675,Vysokoye,UA,29.516666,50.383331,Високе,Высокое
688726,Vyshegrad,UA,29.933332,50.450001,Вишеград,Вышеград
689772,Vesëloye,UA,33.966667,45,Веселе,Весёлое
688952,Voskhod,UA,34.216667,44.516666,Восход,Восход
703518,Verkhnya Kutuzovka,UA,34.366669,44.733334,Верхня Кутузовка,Верхняя Кутузовка
688817,Vulkanivka,UA,35.950001,45.150002,Вулканівка,Вулкановка
690398,Vasil’yevka,UA,34.166668,44.516666,Василівка,Васильевка
689374,Vladyslavivka,UA,35.366669,45.166668,Владиславівка,Владиславовка
690466,Varvarivka,UA,34.900002,45.333332,Варварівка,Варваровка
690393,Vasil’yevka,UA,34.583332,46.049999,Василівка,Васильевка
688681,Vysoke,UA,35.403889,47.231388,Високе,Высокое
686729,Vasylivka,UA,35.274166,47.436943,Василівка,Васильевка
688828,Vuglyar,UA,38.150002,48.016666,Вугляр,Вугляр
689304,Vovchansk,UA,36.946667,50.300278,Вовчанськ,Волчанск
688696,Vysokyy,UA,36.119999,49.89056,Високий,Высокий
808864,Vasil’yevo-Grigor’yevskiy,UA,36.509441,49.243061,Бунакове,Бунаково
690454,Varvarovka,UA,36,48.716671,Варварівка,Варваровка
689985,Verbovatovka,UA,35.933331,48.683331,Вербуватівка,Вербоватовка
689997,Verbki,UA,35.900002,48.583328,Вербки,Вербки
690367,Vasil’yevka,UA,35.5,48.033329,Василівка,Васильевка
689845,Verkhnya Krynytsya,UA,35.279999,47.491669,Верхня Криниця,Верхняя Криница
690380,Vasil’yevka,UA,35.299999,47.433331,Василівка,Васильевка
689482,Vishnëvyy,UA,35.333328,47.299999,Вишнівка,Вишнёвка
689416,Volodymyrivka,UA,35.151669,46.655281,Володимирівка,Владимировка
7021061,Vitvyste,UA,34.419579,45.791241,Вітвисте,Ветвистое
7019908,Vidradne,UA,34.33712,45.606522,Відрадне,Отрадное
689738,Vesele,UA,34.318588,45.593929,Веселе,Весёлое
688826,Vulino,UA,33.650002,44.849998,Віліне,Вилино
698157,Vidradne,UA,33.730942,44.859341,Відрадне,Отрадное
689905,Verkhn’osadove,UA,33.699791,44.689701,Верхньосадове,Верхнесадовое
689974,Verbovka,UA,31.96711,48.997749,Вербівка,Вербовка
689064,Volyns’ka Oblast’,UA,25,51,Волинська область,Волынская область
688723,Vyshhorod,UA,30.489799,50.584759,Вишгород,Вышгород
689321,Vodyane,UA,34.492352,47.487461,Водяне,Водяное
689487,Vyshneve,UA,30.370501,50.38913,Вишневе,Вишнёвое
688746,Vynohradiv,UA,22.76667,48.150002,Виноградів,Виноградов
689559,Vinnyts’ka Oblast’,UA,29,49,Вінницька область,Винницкая область
690412,Vasylkiv,UA,30.313459,50.18692,Васильків,Васильков
689159,Volochys’k,UA,26.17185,49.5312,Волочиськ,Волочиск
689378,Volodymyr-Volynskyy,UA,24.323641,50.852531,Володимир-Волинський,Владимир-Волынский
689558,Vinnytsya,UA,28.48097,49.23278,Вінниця,Винница
690288,Velyka Oleksandrivka,UA,33.30373,47.319691,Велика Олександрівка,Великая Александровка
690281,Velyka Bilozerka,UA,34.706161,47.277561,Велика Білозерка,Великая Белозёрка
688689,Vysokopillya,UA,33.530609,47.491871,Високопілля,Высокополье
690509,Valky,UA,35.62072,49.83868,Валки,Валки
689198,Volnovakha,UA,37.496738,47.601028,Волноваха,Волноваха
690335,Vasyshcheve,UA,36.326908,49.828522,Васищеве,Васищево
689200,Vil’nohirs’k,UA,34.022968,48.485531,Вільногірськ,Вольногорск
690247,Velyka Lepetykha,UA,33.943619,47.17572,Велика Лепетиха,Великая Лепетиха
688663,Vyshchetarasivka,UA,34.880959,47.568501,Вищетарасівка,Высшетарасовка
690043,Vel'ky Sevl'yush,UA,22.76667,48.150002,Вельке Севлюш,Вельке Севлюш
689916,Verkhn’odniprovs’k,UA,34.334572,48.65242,Верхньодніпровськ,Верхнеднепровск
688956,Vorzel,UA,30.153049,50.544399,Ворзель,Ворзель
689584,Vil’nyans’k,UA,35.43539,47.94381,Вільнянськ,Вольнянск
690312,Vatutine,UA,31.062111,49.015018,Ватутіне,Ватутино
689157,Volodarka,UA,29.91222,49.524841,Володарка,Володарка
688860,Voznesensk,UA,31.33078,47.564941,Вознесенськ,Вознесенск
689151,Volodarskoye,UA,37.32346,47.206848,Нікольське,Никольское
690197,Velikiy Berëznyy,UA,22.46052,48.888309,Великий Березний,Великий Березный
688827,Vugrinivka,UA,27.950001,49.549999,Хмільник,Хмельник
689717,Veselynove,UA,31.23488,47.356659,Веселинове,Веселиново
690471,Varshitsa,UA,28.533331,49.466671,Калинівка,Калиновка
690469,Varva,UA,32.719681,50.495029,Варва,Варва
689025,Voronezh,UA,33.459438,51.775719,Вороніж,Воронеж
701299,Volovo,UA,23.50563,48.524578,Міжгір'я,Межгорье
710949,Viytivka,UA,29.54291,48.426029,Війтівка,Войтовка
688105,Yevpatoriya,UA,33.355831,45.197224,Євпаторія,Евпатория
688041,Yurov,UA,29.733334,50.416668,Юрів,Юров
688052,Yurkivka,UA,31.10125,49.012562,Юрківка,Юрковка
688127,Yerky,UA,30.98818,48.99062,Єрки,Ерки
688191,Yelyzavethradka,UA,32.404598,48.80381,Єлизаветградка,Елизаветградка
688365,Yasinya,UA,24.36042,48.279369,Ясіня,Ясиня
688512,Yamnytsya,UA,24.7075,48.989719,Ямниця,Ямница
688532,Yalta,UA,37.273651,46.962791,Ялта,Ялта
688602,Yahilnytsya,UA,25.74374,48.942478,Ягільниця,Ягельница
688625,Yabluniv,UA,24.93874,48.404179,Яблунів,Яблонов
688637,Yablunytsya,UA,24.48448,48.317421,Яблуниця,Яблоница
688533,Yalta,UA,34.166668,44.5,Ялта,Ялта
688501,Yampil,UA,33.783333,51.950001,Ямпіль,Ямполь
688157,Yemel’yanov,UA,31.033333,50.766666,Омелянів,Омелянов
688455,Yaremche,UA,24.551945,48.458332,Яремче,Яремче
687995,Yuzhne,UA,35.283333,44.983334,Южне,Южное
688074,Yunga,UA,35.264139,44.967014,Юнгє,Юнге
688146,Yenikale,UA,36.599998,45.349998,Єнікале,Еникале
826042,Yehorove,UA,36.482777,45.385834,Єгорове,Егорово
688122,Yermakove,UA,34.483334,45.849998,Єрмакове,Ермаково
688357,Yasna Polyana,UA,34.633331,46.183334,Ясна Поляна,Ясная Поляна
713743,Yakymivka,UA,35.15361,46.68972,Якимівка,Акимовка
706967,Yanchekrak,UA,35.360279,47.536388,Кам'янське,Каменское
688170,Yelizavetovka,UA,36.345829,49.186111,Єлизаветівка,Елизаветовка
688022,Yur”yivka,UA,36.033329,48.73333,Юр'ївка,Юрьевка
7018912,Yantarne,UA,34.222069,45.433819,Янтарне,Янтарное
688628,Yablon’ki,UA,30.216669,50.549999,Буча,Буча
688451,Yarizovka,UA,34.5,48.950001,Івано-Яризівка,Ивано-Яризовка
688288,Yavoriv,UA,23.38254,49.938641,Яворів,Яворов
688373,Yasinovataya,UA,37.859402,48.129799,Ясинувата,Ясиноватая
688279,Yavoruv,UA,22.914049,49.016739,Яворів,Яворов
688148,Yenakiyeve,UA,38.211369,48.233311,Єнакієве,Енакиево
688440,Yarmolyntsi,UA,26.83725,49.19236,Ярмолинці,Ярмолинцы
688221,Yelanets’,UA,31.85253,47.696819,Єланець,Еланец
7525990,Yuzhnoukrainsk,UA,31.182631,47.817768,Южноукраїнськ,Южноукраинск
687997,Yuzhne,UA,31.101311,46.622108,Южне,Южное
688587,Yahotyn,UA,31.762461,50.279751,Яготин,Яготин
707313,Yizhivtsi,UA,25.662319,48.039619,Їжівці,Иживцы
687640,Zarech’ye,UA,30.10129,49.788898,Заріччя,Заречье
686812,Zuya,UA,34.315418,45.053101,Зуя,Зуя
686863,Zolotyy Potik,UA,25.33926,48.9095,Золотий Потік,Золотой Поток
686895,Zolochiv,UA,35.981781,50.27985,Золочів,Золочев
686932,Zlynka,UA,31.539061,48.485222,Злинка,Злынка
686970,Zhvanets,UA,26.48744,48.549679,Жванець,Жванец
687009,Zhuravka,UA,32.594898,50.481079,Журавка,Журавка
687065,Zhovtneve,UA,24.24918,50.663651,Благодатне,Благодатное
687191,Zhelyabovka,UA,34.757759,45.398769,Желябовка,Желябовка
687433,Zdolbitsa,UA,26.24111,50.496071,Здовбиця,Здолбица
687526,Zavallya,UA,30.015579,48.213539,Завалля,Завалье
687557,Zatoka,UA,30.46538,46.07251,Затока,Затока
687562,Zatyshshya,UA,29.87327,47.333511,Затишшя,Затишье
687578,Zastavna,UA,25.843691,48.523071,Заставна,Заставна
687602,Zarya,UA,29.69672,45.990799,Зоря,Заря
687645,Zarichchya,UA,24.648569,48.521439,Заріччя,Заречье
687652,Zarichne,UA,26.129021,51.812599,Зарічне,Заречное
687726,Zaozerne,UA,33.27866,45.158161,Заозерне,Заозёрное
687787,Zaliztsi,UA,25.372971,49.791882,Залізці,Заложцы
687790,Zheleznyj port,UA,32.303023,46.121589,Залізний Порт,Зализный Порт
687796,Zaliznychne,UA,36.165241,47.652382,Залізничне,Зализничное
687797,Zaliznychne,UA,28.61466,45.748901,Залізничне,Зализничное
687824,Zalesnoye,UA,38.809341,48.03104,Залісне,Залесное
687841,Zakupne,UA,26.337561,49.119438,Закупне,Закупное
687872,Zahvizdya,UA,24.65275,48.918362,Загвіздя,Загвоздье
687901,Zagnitkiv,UA,28.89234,48.048779,Загнітків,Загнитков
687825,Zalisne,UA,33.783333,44.616669,Залісне,Залесное
687301,Zemlyanychne,UA,34.833332,44.966667,Земляничне,Земляничное
686966,Zhytomyrs’ka Oblast’,UA,28.5,50.5,Житомирська область,Житомирская область
687670,Zaprudnoye,UA,34.316666,44.599998,Запрудне,Запрудное
687746,Zamost’ye,UA,34.099998,44.950001,Заміст'є,Замостье
687150,Zhigulina Roshcha,UA,34.133331,44.966667,Жигулина Роща,Жигулина Роща
687032,Zhukivka,UA,36.628334,45.370834,Жуківка,Жуковка
687501,Zavods’ke,UA,34.083332,44.916668,Заводське,Заводское
686898,Zol’noye,UA,33.983334,45.033333,Зольне,Зольное
686850,Zorkine,UA,34.716667,45.549999,Зоркіне,Зоркино
687699,Zaporiz’ka Oblast’,UA,35.5,47.5,Запорізька область,Запорожская область
687345,Zeleny Hay,UA,35.362499,47.390835,Зелений Гай,Зелёный Гай
687676,Zaporozh’ye Levoye,UA,35.283333,47.849998,Запоріжжя-Ліве,Запорожье-Левое
687869,Zakarpats’ka Oblast’,UA,23,48.333332,Закарпатська область,Закарпатская область
687826,Zalishchyky,UA,25.733889,48.644722,Заліщики,Залещики
686949,Zin’kovtsy,UA,26.583332,48.683334,Зіньківці,Зиньковцы
687835,Zakutnevka,UA,36.310001,49.207218,Закутнівка,Закутневка
687363,Zelënyy,UA,35.476742,47.960272,Зелене,Зелёное
687700,Zaporizhzhya,UA,35.183331,47.816669,Запоріжжя,Запорожье
7040139,Zaliznychne,UA,33.802689,44.71629,Залізничне,Железнодорожное
7046438,Zaliznychne,UA,34.512772,46.01931,Залізничне,Зализничное
687656,Zarichne,UA,34.262199,44.855999,Зарічне,Заречное
687060,Zhovtnevoye,UA,31.98333,48.51667,Шостаківка,Шестаковка
686928,Zmiyev,UA,36.361092,49.69664,Зміїв,Змиёв
686875,Zolotonosha,UA,32.037731,49.668861,Золотоноша,Золотоноша
687432,Zdolbuniv,UA,26.24251,50.520599,Здолбунів,Здолбунов
686896,Zolochiv,UA,24.89436,49.805969,Золочів,Золочев
687093,Zhovkva,UA,23.972601,50.05825,Жовква,Жолква
687933,Zachepylivka,UA,35.239429,49.193851,Зачепилівка,Зачепиловка
687277,Zhurivka,UA,31.78492,50.502762,Згурівка,Згуровка
687116,Zhmerynka,UA,28.112009,49.037048,Жмеринка,Жмеринка
686943,Zlatopol’,UA,35.0247,47.40826,Златопіль,Златополь
686967,Zhytomyr,UA,28.676689,50.26487,Житомир,Житомир
687965,Zabolotiv,UA,25.285709,48.470539,Заболотів,Заболотов
687245,Zhashkiv,UA,30.110201,49.245449,Жашків,Жашков
687455,Zbarazh,UA,25.776159,49.66357,Збараж,Збараж
686818,Zuhres,UA,38.264439,48.011398,Зугрес,Зугрэс
687449,Zboriv,UA,25.140961,49.664841,Зборів,Зборов
686919,Znomenka,UA,32.664719,48.71278,Знам'янка,Знаменка
687669,Zaprudnoye,UA,38.76667,48.01667,Запрудне,Запрудное
687292,Zinkiv,UA,34.363762,50.208061,Зіньків,Зеньков
687196,Zhovti Vody,UA,33.50034,48.347309,Жовті Води,Жёлтые Воды
618835,Zhidachov,UA,24.14254,49.384682,Жидачів,Жидачов
687021,Zhulyany,UA,30.44327,50.392811,Жуляни,Жуляны
686803,Zvenyhorodka,UA,30.967541,49.078659,Звенигородка,Звенигородка